{
"type": "FeatureCollection",
"name": "districts_paramaribo_NW_1837",
"crs": { "type": "name", "properties": { "name": "urn:ogc:def:crs:EPSG::31171" } },
"features": [
{ "type": "Feature", "properties": { "id": 1, "wijk": "A" }, "geometry": { "type": "MultiPolygon", "coordinates": [ [ [ [ 559391.057286183349788, 644597.868760160519741 ], [ 559376.118482521618716, 644579.040743086719885 ], [ 559263.821854697889648, 644399.717929471982643 ], [ 558911.077974394895136, 644398.609389685443603 ], [ 558872.059695566305891, 644396.293443559086882 ], [ 558680.274375521112233, 644354.870650335680693 ], [ 558487.994972433662042, 644318.593626883579418 ], [ 558374.617650971747935, 644670.519739621435292 ], [ 558528.505212447606027, 644930.759723465540446 ], [ 558505.765440555405803, 644945.285240358207375 ], [ 558599.99865157622844, 645124.589693459216505 ], [ 559052.730540294898674, 644963.933877774747089 ], [ 559139.784354995237663, 644928.133993131224997 ], [ 559324.418468627845868, 644817.365175547311082 ], [ 559324.418468627845868, 644817.365175547311082 ], [ 559361.809807338286191, 644663.883466649800539 ], [ 559391.057286183349788, 644597.868760160519741 ] ] ] ] } },
{ "type": "Feature", "properties": { "id": 3, "wijk": "C" }, "geometry": { "type": "MultiPolygon", "coordinates": [ [ [ [ 558027.712079727440141, 644869.197056965902448 ], [ 558374.617650971747935, 644670.519739621435292 ], [ 558487.994972433662042, 644318.593626883579418 ], [ 558291.553268676041625, 644238.759087397134863 ], [ 558181.339680433738977, 644155.675280999857932 ], [ 558098.935562884667888, 644256.553373156581074 ], [ 557796.624834564630874, 644436.36266725929454 ], [ 558027.712079727440141, 644869.197056965902448 ] ] ] ] } },
{ "type": "Feature", "properties": { "id": 3, "wijk": "E" }, "geometry": { "type": "MultiPolygon", "coordinates": [ [ [ [ 557107.774128063349053, 644830.238642123062164 ], [ 557530.470775235211477, 644587.985779108013958 ], [ 557796.624834564630874, 644436.36266725929454 ], [ 558098.935562884667888, 644256.553373156581074 ], [ 558181.339680433738977, 644155.675280999857932 ], [ 557725.259932608692907, 643782.856625787098892 ], [ 557596.880270523368381, 643977.083179907291196 ], [ 557321.616515328059904, 644211.906313211657107 ], [ 557132.658763287472539, 644380.475988646154292 ], [ 556929.739917313680053, 644523.431199521757662 ], [ 557107.774128063349053, 644830.238642123062164 ] ] ] ] } },
{ "type": "Feature", "properties": { "id": 3, "wijk": "D" }, "geometry": { "type": "MultiPolygon", "coordinates": [ [ [ [ 557354.906571827479638, 645243.883232254302129 ], [ 557652.312315712799318, 645084.799995885812677 ], [ 558027.712079727440141, 644869.197056965902448 ], [ 557796.624834564630874, 644436.36266725929454 ], [ 557530.470775235211477, 644587.985779108013958 ], [ 557107.774128063349053, 644830.238642123062164 ], [ 557354.906571827479638, 645243.883232254302129 ] ] ] ] } },
{ "type": "Feature", "properties": { "id": 1, "wijk": "EBW" }, "geometry": { "type": "MultiPolygon", "coordinates": [ [ [ [ 559324.418468627845868, 644817.365175547311082 ], [ 559139.784354995237663, 644928.133993131224997 ], [ 559052.730540294898674, 644963.933877774747089 ], [ 559399.70239293819759, 645611.786685335333459 ], [ 559952.259635812602937, 645435.806133021134883 ], [ 560494.877771434257738, 645155.520365261356346 ], [ 559721.596865894389339, 644831.254765062360093 ], [ 559651.375004412955604, 644728.176900738268159 ], [ 559496.236289146821946, 644674.645194683806039 ], [ 559391.057286183349788, 644597.868760160519741 ], [ 559361.809807338286191, 644663.883466649800539 ], [ 559346.016102601657622, 644727.292510382947512 ], [ 559324.418468627845868, 644817.365175547311082 ] ] ] ] } },
{ "type": "Feature", "properties": { "id": 3, "wijk": "TBW" }, "geometry": { "type": "MultiPolygon", "coordinates": [ [ [ [ 556888.144372982205823, 645729.221372330212034 ], [ 557501.767819067463279, 645543.390276299556717 ], [ 557473.299493487458676, 645451.137672696029767 ], [ 557354.906571827479638, 645243.883232254302129 ], [ 557107.774128063349053, 644830.238642123062164 ], [ 556929.739917313680053, 644523.431199521757662 ], [ 556812.172390058753081, 644336.475223075831309 ], [ 556696.909044214640744, 644129.585380604607053 ], [ 556160.012498369673267, 644356.612778899958357 ], [ 555832.322548348689452, 644578.593776766443625 ], [ 555286.824712827452458, 644656.080271928920411 ], [ 555340.056088081328198, 646182.465304939891212 ], [ 555887.156840579700656, 646035.545446916017681 ], [ 556400.072002453962341, 645891.702622256008908 ], [ 556888.144372982205823, 645729.221372330212034 ] ] ] ] } },
{ "type": "Feature", "properties": { "id": 4, "wijk": "B" }, "geometry": { "type": "MultiPolygon", "coordinates": [ [ [ [ 557634.760520850191824, 645082.380450175027363 ], [ 557354.906571827479638, 645243.883232254302129 ], [ 557473.299493487458676, 645451.137672696029767 ], [ 557501.767819067463279, 645543.390276299556717 ], [ 557783.317215318558738, 645438.040292453486472 ], [ 558599.99865157622844, 645124.589693459216505 ], [ 558505.765440555405803, 644945.285240358207375 ], [ 558528.505212447606027, 644930.759723465540446 ], [ 558374.617650971747935, 644670.519739621435292 ], [ 558027.712079727440141, 644869.197056965902448 ], [ 557634.760520850191824, 645082.380450175027363 ] ] ] ] } },
{ "type": "Feature", "properties": { "id": 5, "wijk": "F" }, "geometry": { "type": "MultiPolygon", "coordinates": [ [ [ [ 556812.172390058753081, 644336.475223075831309 ], [ 556929.739917313680053, 644523.431199521757662 ], [ 557132.658763287472539, 644380.475988646154292 ], [ 557321.616515328059904, 644211.906313211657107 ], [ 557596.880270523368381, 643977.083179907291196 ], [ 557725.259932608692907, 643782.856625787098892 ], [ 557633.249621413648129, 643610.24752510257531 ], [ 557006.494523682282306, 643957.632789437891915 ], [ 556696.909044214640744, 644129.585380604607053 ], [ 556812.172390058753081, 644336.475223075831309 ] ] ] ] } }
]
}
