{
"type": "FeatureCollection",
"name": "districts_paramaribo_OW_1804",
"crs": { "type": "name", "properties": { "name": "urn:ogc:def:crs:EPSG::31171" } },
"features": [
{ "type": "Feature", "properties": { "id": 1, "wijk": "A" }, "geometry": { "type": "MultiPolygon", "coordinates": [ [ [ [ 559399.70239293819759, 645611.786685335333459 ], [ 559952.259635812602937, 645435.806133021134883 ], [ 560494.877771434257738, 645155.520365261356346 ], [ 559721.596865894389339, 644831.254765062360093 ], [ 559635.859089210163802, 644854.415013131918386 ], [ 559207.428894808050245, 645019.902291717124172 ], [ 559009.393439019098878, 644676.227363150101155 ], [ 558962.27747217589058, 644581.911863834830001 ], [ 559030.60402583074756, 644549.883931347518228 ], [ 559019.651531845913269, 644448.582298864610493 ], [ 558908.161022435757332, 644455.497540913638659 ], [ 558872.059695566305891, 644396.293443559086882 ], [ 558680.274375521112233, 644354.870650335680693 ], [ 558533.637229393934831, 644345.832149443915114 ], [ 558812.719168175011873, 644765.215044273994863 ], [ 558800.671337073785253, 644797.099219104158692 ], [ 558833.96230451297015, 644858.085748076206073 ], [ 558949.021613795077428, 644793.507955008419231 ], [ 559399.70239293819759, 645611.786685335333459 ] ] ] ] } },
{ "type": "Feature", "properties": { "id": 2, "wijk": "B" }, "geometry": { "type": "MultiPolygon", "coordinates": [ [ [ [ 558833.96230451297015, 644858.085748076206073 ], [ 558800.671337073785253, 644797.099219104158692 ], [ 558812.719168175011873, 644765.215044273994863 ], [ 558533.637229393934831, 644345.832149443915114 ], [ 558480.435140882036649, 644314.693081124220043 ], [ 558422.996937257819809, 644517.974097573431209 ], [ 558373.13705107755959, 644672.622366431634873 ], [ 558528.067101755645126, 644932.513842115178704 ], [ 558504.955778185045347, 644944.526840202626772 ], [ 558537.036854856531136, 645006.735623632790521 ], [ 558833.96230451297015, 644858.085748076206073 ] ] ] ] } },
{ "type": "Feature", "properties": { "id": 3, "wijk": "C" }, "geometry": { "type": "MultiPolygon", "coordinates": [ [ [ [ 558299.459791984409094, 645058.413087349734269 ], [ 558206.000329859904014, 645117.496206471230835 ], [ 558278.1881978783058, 645251.949767722049728 ], [ 558600.698273339192383, 645129.397745400900021 ], [ 558537.036854856531136, 645006.735623632790521 ], [ 558504.955778185045347, 644944.526840202626772 ], [ 558528.067101755645126, 644932.513842115178704 ], [ 558373.13705107755959, 644672.622366431634873 ], [ 558480.435140882036649, 644314.693081124220043 ], [ 558288.140857027028687, 644270.637758216354996 ], [ 558200.434370902134106, 644622.568181281210855 ], [ 558156.082984326290898, 644794.521424826933071 ], [ 558299.459791984409094, 645058.413087349734269 ] ] ] ] } },
{ "type": "Feature", "properties": { "id": 4, "wijk": "D" }, "geometry": { "type": "MultiPolygon", "coordinates": [ [ [ [ 558288.140857027028687, 644270.637758216354996 ], [ 557701.526666707592085, 643797.737311923759989 ], [ 557606.458623599493876, 643966.635524284443818 ], [ 557560.71626373718027, 644014.230402805842459 ], [ 557321.495039352681488, 644213.584654328296892 ], [ 557201.882261871243827, 644316.270719585707411 ], [ 557124.996218244428746, 644373.866260476293974 ], [ 556812.172390058753081, 644336.475223075831309 ], [ 557335.742576629272662, 645501.859150791540742 ], [ 557267.401322353282012, 645534.639352474012412 ], [ 557337.992298317956738, 645807.552085065864958 ], [ 557791.029208307969384, 645633.649562888313085 ], [ 558278.1881978783058, 645251.949767722049728 ], [ 558206.000329859904014, 645117.496206471230835 ], [ 558299.459791984409094, 645058.413087349734269 ], [ 558156.082984326290898, 644794.521424826933071 ], [ 558288.140857027028687, 644270.637758216354996 ] ] ] ] } },
{ "type": "Feature", "properties": { "id": 5, "wijk": "Vrije kolonie" }, "geometry": { "type": "MultiPolygon", "coordinates": [ [ [ [ 556812.172390058753081, 644336.475223075831309 ], [ 557124.996218244428746, 644373.866260476293974 ], [ 557201.882261871243827, 644316.270719585707411 ], [ 557321.495039352681488, 644213.584654328296892 ], [ 557560.71626373718027, 644014.230402805842459 ], [ 557310.055489100399427, 643543.147854870418087 ], [ 557177.890925546525978, 643633.10833442513831 ], [ 557285.695008663926274, 643822.92953959654551 ], [ 556705.880123473354615, 644148.840221374994144 ], [ 556812.172390058753081, 644336.475223075831309 ] ] ] ] } }
]
}
