{
"type": "FeatureCollection",
"name": "districts_paramaribo_1916",
"crs": { "type": "name", "properties": { "name": "urn:ogc:def:crs:EPSG::32621" } },
"features": [
{ "type": "Feature", "properties": { "id": 5, "Wijk": "E", "gebBS28-68": 2746.0 }, "geometry": { "type": "MultiPolygon", "coordinates": [ [ [ [ 702610.762526032747701, 644371.599762361031026 ], [ 702733.102859142352827, 644579.134701293893158 ], [ 703428.954121460206807, 644202.431756276171654 ], [ 703603.256908481009305, 644101.926195789244957 ], [ 703732.5527724979911, 644029.069397193612531 ], [ 703806.817834966001101, 643920.094225216424093 ], [ 703479.533826300292276, 643701.884415573673323 ], [ 703377.594426897121593, 643623.363526844186708 ], [ 703343.15544061223045, 643543.465078663430177 ], [ 703223.838361461646855, 643733.08787014009431 ], [ 702954.384148310637102, 643969.396565443137661 ], [ 702685.891953524202108, 644191.32965513668023 ], [ 702554.435348540428095, 644275.271212812163867 ], [ 702610.762526032747701, 644371.599762361031026 ] ] ] ] } },
{ "type": "Feature", "properties": { "id": 4, "Wijk": "D", "gebBS28-68": 2891.0 }, "geometry": { "type": "MultiPolygon", "coordinates": [ [ [ [ 702733.102859142352827, 644579.134701293893158 ], [ 702977.392847059993073, 644986.173864041105844 ], [ 703653.007468273863196, 644619.950190778705291 ], [ 703428.954121460206807, 644202.431756276171654 ], [ 702733.102859142352827, 644579.134701293893158 ] ] ] ] } },
{ "type": "Feature", "properties": { "id": 3, "Wijk": "C", "gebBS28-68": 1773.0 }, "geometry": { "type": "MultiPolygon", "coordinates": [ [ [ [ 703428.954121460206807, 644202.431756276171654 ], [ 703653.007468273863196, 644619.950190778705291 ], [ 703995.243764855898917, 644427.536916928365827 ], [ 704057.791919603128918, 644379.844651435618289 ], [ 704143.035832508234307, 644350.369724560296163 ], [ 704071.140790493693203, 644281.278491286095232 ], [ 704116.12537220492959, 644078.163051309878938 ], [ 703806.817834966001101, 643920.094225216424093 ], [ 703732.5527724979911, 644029.069397193612531 ], [ 703603.256908481009305, 644101.926195789244957 ], [ 703428.954121460206807, 644202.431756276171654 ] ] ] ] } },
{ "type": "Feature", "properties": { "id": 1, "Wijk": "A", "gebBS28-68": 2023.0 }, "geometry": { "type": "MultiPolygon", "coordinates": [ [ [ [ 704219.446552131208591, 644877.543300378485583 ], [ 704331.242008221335709, 644834.875190024031326 ], [ 704655.589152221451513, 645472.702969491598196 ], [ 704977.295447302982211, 645372.053827121155336 ], [ 704908.138484824681655, 645240.430407419335097 ], [ 704963.913242500042543, 645209.028002974344417 ], [ 704696.068393737543374, 644704.04272047127597 ], [ 704766.966418220079504, 644691.009250247385353 ], [ 704612.196390454191715, 644428.973392902873456 ], [ 704636.290216418216005, 644412.627827629097737 ], [ 704583.409783407347277, 644332.859006418264471 ], [ 704658.213614809792489, 644286.357374612241983 ], [ 704649.051019169273786, 644186.516969435848296 ], [ 704550.382791440933943, 644179.245080154505558 ], [ 704437.161939322948456, 644172.557452129665762 ], [ 704287.988392066443339, 644132.903561811195686 ], [ 704212.545838053221814, 644091.910292646964081 ], [ 704116.12537220492959, 644078.163051309878938 ], [ 704071.140790493693203, 644281.278491286095232 ], [ 704143.035832508234307, 644350.369724560296163 ], [ 704057.791919603128918, 644379.844651435618289 ], [ 703995.243764855898917, 644427.536916928365827 ], [ 704152.111003452446312, 644684.322715024463832 ], [ 704126.578354862285778, 644698.024971603997983 ], [ 704219.446552131208591, 644877.543300378485583 ] ] ] ] } },
{ "type": "Feature", "properties": { "id": 7, "Wijk": "EBW", "gebBS28-68": 392.0 }, "geometry": { "type": "MultiPolygon", "coordinates": [ [ [ [ 704977.295447302982211, 645372.053827121155336 ], [ 705126.781654602265917, 645315.69109766324982 ], [ 705523.325391233433038, 645159.067800851073116 ], [ 705552.268085730378516, 645207.173446011263877 ], [ 706092.252992594963871, 644911.535598583868705 ], [ 706050.183439141372219, 644894.429476761375554 ], [ 706024.748202614020556, 644878.43874392984435 ], [ 705763.828732838970609, 644777.542296214960515 ], [ 705668.388260166277178, 644735.163304190267809 ], [ 705428.075416801380925, 644611.360137207549997 ], [ 705265.63658070366364, 644489.228017124696635 ], [ 705095.966340872691944, 644413.025457686861046 ], [ 705013.042669064365327, 644358.758875182596967 ], [ 704966.310573256458156, 644286.103953882702626 ], [ 704875.530194835388102, 644188.522541031590663 ], [ 704649.051019169273786, 644186.516969435848296 ], [ 704658.213614809792489, 644286.357374612241983 ], [ 704583.409783407347277, 644332.859006418264471 ], [ 704636.290216418216005, 644412.627827629097737 ], [ 704612.196390454191715, 644428.973392902873456 ], [ 704766.966418220079504, 644691.009250247385353 ], [ 704696.068393737543374, 644704.04272047127597 ], [ 704963.913242500042543, 645209.028002974344417 ], [ 704908.138484824681655, 645240.430407419335097 ], [ 704977.295447302982211, 645372.053827121155336 ] ] ] ] } },
{ "type": "Feature", "properties": { "id": 2, "Wijk": "B", "gebBS28-68": 1799.0 }, "geometry": { "type": "MultiPolygon", "coordinates": [ [ [ [ 703995.243764855898917, 644427.536916928365827 ], [ 703653.007468273863196, 644619.950190778705291 ], [ 702977.392847059993073, 644986.173864041105844 ], [ 703099.324513523373753, 645200.856287514558062 ], [ 703126.276693557039835, 645294.615875371964648 ], [ 703301.109583131270483, 645820.449416588176973 ], [ 703132.644983540056273, 645878.017167034093291 ], [ 703134.276883724378422, 646929.182803880074061 ], [ 704766.446413912228309, 646919.371811709599569 ], [ 704330.537242807680741, 645581.238859118428081 ], [ 704655.589152221451513, 645472.702969491598196 ], [ 704331.242008221335709, 644834.875190024031326 ], [ 704219.446552131208591, 644877.543300378485583 ], [ 704126.578354862285778, 644698.024971603997983 ], [ 704152.111003452446312, 644684.322715024463832 ], [ 703995.243764855898917, 644427.536916928365827 ] ] ] ] } },
{ "type": "Feature", "properties": { "id": 6, "Wijk": "F", "gebBS28-68": 835.0 }, "geometry": { "type": "MultiPolygon", "coordinates": [ [ [ [ 703343.15544061223045, 643543.465078663430177 ], [ 703136.598996201646514, 643157.271016931161284 ], [ 703011.435099498485215, 642548.365573510527611 ], [ 702572.279672800097615, 642700.233588188420981 ], [ 702388.043057909235358, 642747.710851317737252 ], [ 702266.143107450101525, 642785.492529124487191 ], [ 702216.126284507685341, 642926.721692444756627 ], [ 701846.097890598932281, 643076.658866325393319 ], [ 701906.48054533044342, 643185.506403535953723 ], [ 702554.435348540428095, 644275.271212812163867 ], [ 702685.891953524202108, 644191.32965513668023 ], [ 702954.384148310637102, 643969.396565443137661 ], [ 703223.838361461646855, 643733.08787014009431 ], [ 703343.15544061223045, 643543.465078663430177 ] ] ] ] } },
{ "type": "Feature", "properties": { "id": 8, "Wijk": "TBW", "gebBS28-68": 151.0 }, "geometry": { "type": "MultiPolygon", "coordinates": [ [ [ [ 703301.109583131270483, 645820.449416588176973 ], [ 703099.324513523373753, 645200.856287514558062 ], [ 702977.392847059993073, 644986.173864041105844 ], [ 702872.93109987792559, 644815.58949647389818 ], [ 702554.435348540428095, 644275.271212812163867 ], [ 701906.48054533044342, 643185.506403535953723 ], [ 700978.761247586458921, 643662.611859696684405 ], [ 700994.711808441788889, 644210.978347444674 ], [ 700996.177243517362513, 644541.99368615495041 ], [ 700940.677943568211049, 644587.875691120629199 ], [ 700958.15824833966326, 644901.816185706178658 ], [ 701010.582352970610373, 645847.594701094552875 ], [ 702579.207965603214689, 645651.328758880263194 ], [ 702636.440465581137687, 647503.674881296348758 ], [ 702983.193309680791572, 647477.011066907900386 ], [ 702974.853016525856219, 646931.189349182765 ], [ 703134.276883724378422, 646929.182803880074061 ], [ 703132.644983540056273, 645878.017167034093291 ], [ 703301.109583131270483, 645820.449416588176973 ] ] ] ] } }
]
}
