{
"type": "FeatureCollection",
"name": "districts_paramaribo_OW_1817",
"crs": { "type": "name", "properties": { "name": "urn:ogc:def:crs:EPSG::31171" } },
"features": [
{ "type": "Feature", "properties": { "id": 0, "wijk": "A", "buurt": "Combé Links", "wijk_buurt": "ACL", "label": null }, "geometry": { "type": "MultiPolygon", "coordinates": [ [ [ [ 559494.98749564809259, 645557.183214846067131 ], [ 559139.784354995237663, 644928.133993131224997 ], [ 559052.730540294898674, 644963.933877774747089 ], [ 559392.966633827192709, 645604.799725604709238 ], [ 559494.98749564809259, 645557.183214846067131 ] ] ] ] } },
{ "type": "Feature", "properties": { "id": 1, "wijk": "A", "buurt": null, "wijk_buurt": "A", "label": null }, "geometry": { "type": "MultiPolygon", "coordinates": [ [ [ [ 559398.908661230118014, 644580.97768642345909 ], [ 559259.54064328642562, 644409.713037786772475 ], [ 559201.896893040160649, 644401.370699309976771 ], [ 558938.964363128761761, 644425.986266123712994 ], [ 558509.499039010494016, 644300.258306967793033 ], [ 558654.997040409594774, 644515.429881508927792 ], [ 558837.102256694459356, 644802.539297901210375 ], [ 558947.28746940928977, 644997.182587849907577 ], [ 559052.730540294898674, 644963.933877774747089 ], [ 559139.784354995237663, 644928.133993131224997 ], [ 559324.418468627845868, 644817.365175547311082 ], [ 559324.418468627845868, 644817.365175547311082 ], [ 559361.809807338286191, 644663.883466649800539 ], [ 559398.908661230118014, 644580.97768642345909 ] ] ] ] } },
{ "type": "Feature", "properties": { "id": 2, "wijk": "A", "buurt": "Combé Rechts", "wijk_buurt": "ACR", "label": null }, "geometry": { "type": "MultiPolygon", "coordinates": [ [ [ [ 559139.784354995237663, 644928.133993131224997 ], [ 559494.98749564809259, 645557.183214846067131 ], [ 559708.326552546350285, 645489.889391344971955 ], [ 559899.219879222568125, 645419.632584851700813 ], [ 560503.165546515840106, 645114.795315287192352 ], [ 559772.630236961995251, 644790.531303782714531 ], [ 559652.582517247297801, 644708.770361826289445 ], [ 559523.424439303809777, 644653.208515216945671 ], [ 559398.908661230118014, 644580.97768642345909 ], [ 559361.809807338286191, 644663.883466649800539 ], [ 559324.418468627845868, 644817.365175547311082 ], [ 559139.784354995237663, 644928.133993131224997 ], [ 559139.784354995237663, 644928.133993131224997 ] ] ] ] } },
{ "type": "Feature", "properties": { "id": 3, "wijk": "B", "buurt": null, "wijk_buurt": "B", "label": null }, "geometry": { "type": "MultiPolygon", "coordinates": [ [ [ [ 558374.617650971747935, 644670.519739621435292 ], [ 558627.851665697991848, 645116.496092671412043 ], [ 558947.28746940928977, 644997.182587849907577 ], [ 558845.191157400375232, 644788.435163766145706 ], [ 558654.997040409594774, 644515.429881508927792 ], [ 558509.499039010494016, 644300.258306967793033 ], [ 558374.617650971747935, 644670.519739621435292 ] ] ] ] } },
{ "type": "Feature", "properties": { "id": 4, "wijk": "C", "buurt": null, "wijk_buurt": "C", "label": null }, "geometry": { "type": "MultiPolygon", "coordinates": [ [ [ [ 557652.312315712799318, 645084.799995885812677 ], [ 557822.698899955721572, 645423.18029138201382 ], [ 558627.851665697991848, 645116.496092671412043 ], [ 558374.617650971747935, 644670.519739621435292 ], [ 558509.499039010494016, 644300.258306967793033 ], [ 558318.112702915561385, 644219.105580570641905 ], [ 558158.422103599645197, 644791.488937578629702 ], [ 557652.312315712799318, 645084.799995885812677 ] ] ] ] } },
{ "type": "Feature", "properties": { "id": 5, "wijk": "D", "buurt": null, "wijk_buurt": "D", "label": null }, "geometry": { "type": "MultiPolygon", "coordinates": [ [ [ [ 557503.604355067480356, 645542.499489692621864 ], [ 557822.698899955721572, 645423.18029138201382 ], [ 557652.312315712799318, 645084.799995885812677 ], [ 558027.712079727440141, 644869.197056965902448 ], [ 558158.422103599645197, 644791.488937578629702 ], [ 558204.340256685274653, 644623.535176084027626 ], [ 558318.112702915561385, 644219.105580570641905 ], [ 558181.339680433738977, 644155.675280999857932 ], [ 557639.622464949614368, 643902.350871616974473 ], [ 557408.832602085894905, 643488.532515433616936 ], [ 557280.55955701880157, 643564.685522286919877 ], [ 557393.944030375685543, 643763.024650421808474 ], [ 557513.85630726790987, 643997.3212414837908 ], [ 557543.442994261276908, 644023.891798002878204 ], [ 557201.469150731689297, 644318.580074253375642 ], [ 557395.978868776117451, 644664.158186345128343 ], [ 557107.774128063349053, 644830.238642123062164 ], [ 557354.906571827479638, 645243.883232254302129 ], [ 557474.075551167712547, 645453.770300116506405 ], [ 557503.604355067480356, 645542.499489692621864 ] ], [ [ 558098.935562884667888, 644256.553373156581074 ], [ 557796.624834564630874, 644436.36266725929454 ], [ 557395.978868776117451, 644664.158186345128343 ], [ 558098.935562884667888, 644256.553373156581074 ] ] ] ] } },
{ "type": "Feature", "properties": { "id": 6, "wijk": "D", "buurt": "Frimangron", "wijk_buurt": "DFG", "label": null }, "geometry": { "type": "MultiPolygon", "coordinates": [ [ [ [ 557171.384496650192887, 644284.617392244632356 ], [ 557435.897331399144605, 644064.616247037309222 ], [ 557513.85630726790987, 643997.3212414837908 ], [ 557393.944030375685543, 643763.024650421808474 ], [ 557147.506309156771749, 643901.900393209652975 ], [ 557012.170911381370388, 643975.023488896666095 ], [ 556707.153182954760268, 644150.134714919608086 ], [ 556793.658327981247567, 644305.273411708651111 ], [ 557100.176194082596339, 644145.115667603560723 ], [ 557171.384496650192887, 644284.617392244632356 ] ] ] ] } },
{ "type": "Feature", "properties": { "id": 7, "wijk": "D", "buurt": "Böhmknie", "wijk_buurt": "DBK", "label": null }, "geometry": { "type": "MultiPolygon", "coordinates": [ [ [ [ 556901.849609150085598, 644478.911539569031447 ], [ 556928.054016688489355, 644524.630290657281876 ], [ 557134.624023610143922, 644375.973771218210459 ], [ 557201.469150731689297, 644318.580074253375642 ], [ 557318.999748318572529, 644213.185869596083649 ], [ 557543.442994261276908, 644023.891798002878204 ], [ 557513.85630726790987, 643997.3212414837908 ], [ 557435.897331399144605, 644064.616247037309222 ], [ 557171.384496650192887, 644284.617392244632356 ], [ 556901.849609150085598, 644478.911539569031447 ] ] ] ] } },
{ "type": "Feature", "properties": { "id": 8, "wijk": "D", "buurt": "Kauknie", "wijk_buurt": "DKK", "label": null }, "geometry": { "type": "MultiPolygon", "coordinates": [ [ [ [ 557201.469150731689297, 644318.580074253375642 ], [ 557134.624023610143922, 644375.973771218210459 ], [ 556928.054016688489355, 644524.630290657281876 ], [ 557107.774128063349053, 644830.238642123062164 ], [ 557395.978868776117451, 644664.158186345128343 ], [ 557201.469150731689297, 644318.580074253375642 ] ] ] ] } },
{ "type": "Feature", "properties": { "id": 9, "wijk": "D", "buurt": "Kauknie", "wijk_buurt": "DKK", "label": null }, "geometry": { "type": "MultiPolygon", "coordinates": [ [ [ [ 556901.849609150085598, 644478.911539569031447 ], [ 557171.384496650192887, 644284.617392244632356 ], [ 557100.176194082596339, 644145.115667603560723 ], [ 556793.658327981247567, 644305.273411708651111 ], [ 556901.849609150085598, 644478.911539569031447 ] ] ] ] } }
]
}
