{
"type": "FeatureCollection",
"name": "streetsParamaribo1804map",
"crs": { "type": "name", "properties": { "name": "urn:ogc:def:crs:OGC:1.3:CRS84" } },
"features": [
{ "type": "Feature", "properties": { "id": null, "Name": "[naamloos]" }, "geometry": null },
{ "type": "Feature", "properties": { "id": null, "Name": "[naamloos]" }, "geometry": null },
{ "type": "Feature", "properties": { "id": null, "Name": "weg naar Zee" }, "geometry": { "type": "MultiLineString", "coordinates": [ ] } },
{ "type": "Feature", "properties": { "id": null, "Name": "" }, "geometry": { "type": "MultiLineString", "coordinates": [ [ [ -55.166766919993456, 5.834604260218155 ], [ -55.166734884821189, 5.834726200551591 ] ] ] } },
{ "type": "Feature", "properties": { "id": null, "Name": "Laan van Tourtonne" }, "geometry": { "type": "MultiLineString", "coordinates": [ [ [ -55.156377970221854, 5.829614951388635 ], [ -55.155570906656401, 5.831159403967134 ] ] ] } },
{ "type": "Feature", "properties": { "id": null, "Name": "[naamloos]" }, "geometry": { "type": "MultiLineString", "coordinates": [ [ [ -55.151051036966052, 5.825076627388309 ], [ -55.150681129907518, 5.82500869270941 ], [ -55.150354577828175, 5.824971490573788 ], [ -55.149751076516978, 5.825521255466865 ], [ -55.149436925149502, 5.825798204698715 ] ] ] } },
{ "type": "Feature", "properties": { "id": null, "Name": "[naamloos]" }, "geometry": { "type": "MultiLineString", "coordinates": [ [ [ -55.150094162878823, 5.826281832461797 ], [ -55.149665304926529, 5.826085487857124 ], [ -55.149640503502781, 5.82603795179494 ], [ -55.149605368152471, 5.825651462941537 ] ] ] } },
{ "type": "Feature", "properties": { "id": null, "Name": "[naamloos]" }, "geometry": { "type": "MultiLineString", "coordinates": [ [ [ -55.149665304926529, 5.826085487857124 ], [ -55.149789312045272, 5.825966647701664 ], [ -55.149958788440877, 5.825844707368238 ], [ -55.149911252378701, 5.825627694910445 ], [ -55.149751076516978, 5.825521255466865 ] ] ] } },
{ "type": "Feature", "properties": { "id": null, "Name": "[naamloos]" }, "geometry": { "type": "MultiLineString", "coordinates": [ [ [ -55.151051036966052, 5.825076627388309 ], [ -55.151553313309357, 5.82521485454431 ], [ -55.151681453998719, 5.825293392386178 ] ] ] } },
{ "type": "Feature", "properties": { "id": null, "Name": "Houtmarkt" }, "geometry": { "type": "MultiLineString", "coordinates": [ [ [ -55.160044700765106, 5.823400217040084 ], [ -55.159810120632478, 5.823450853280263 ], [ -55.158395750550412, 5.823804962497107 ], [ -55.156712698377746, 5.82429134597394 ], [ -55.156445394144022, 5.824442910230176 ], [ -55.155770588739131, 5.824594818950617 ], [ -55.155530841642907, 5.824541082532496 ], [ -55.154856036238471, 5.824835599439488 ], [ -55.154156429410222, 5.825136316702443 ], [ -55.153875346607784, 5.82516835187477 ], [ -55.153309047432174, 5.825214854544312 ], [ -55.152802685030686, 5.825257223643201 ], [ -55.152285988702594, 5.825272724533058 ], [ -55.151681453998719, 5.825293392386178 ] ] ] } },
{ "type": "Feature", "properties": { "id": null, "Name": "[naamloos]" }, "geometry": { "type": "MultiLineString", "coordinates": [ [ [ -55.151681453998719, 5.825293392386178 ], [ -55.151151905591696, 5.825490800078694 ] ] ] } },
{ "type": "Feature", "properties": { "id": null, "Name": "[naamloos]" }, "geometry": { "type": "MultiLineString", "coordinates": [ [ [ -55.151640965595099, 5.825930954081758 ], [ -55.151711422385766, 5.825396731651797 ], [ -55.151722789704984, 5.825289258815555 ] ] ] } },
{ "type": "Feature", "properties": { "id": null, "Name": "Heerenstraat" }, "geometry": { "type": "MultiLineString", "coordinates": [ [ [ -55.152386782100308, 5.826291635834269 ], [ -55.152655943273494, 5.826416690203421 ], [ -55.153581863093414, 5.826844514763071 ], [ -55.153621132014358, 5.82686311583088 ], [ -55.154123360845247, 5.827137998277419 ], [ -55.154635923602704, 5.82745214964489 ], [ -55.154943874614247, 5.827646427464249 ], [ -55.155149519752833, 5.827772501368289 ], [ -55.156673773920659, 5.828686020476345 ], [ -55.157777437277439, 5.829301922499416 ] ] ] } },
{ "type": "Feature", "properties": { "id": null, "Name": "Graven- of Soldatenstraat" }, "geometry": { "type": "MultiLineString", "coordinates": [ [ [ -55.151992477472561, 5.827129151090101 ], [ -55.152399661894776, 5.827332276096777 ], [ -55.153569462381547, 5.828008114893904 ], [ -55.154375508653359, 5.828464874447926 ], [ -55.155290061154076, 5.828978470598027 ], [ -55.156171545089762, 5.829475532465647 ], [ -55.156377970221854, 5.829614951388635 ], [ -55.158442942148, 5.830800341850842 ], [ -55.159100179877321, 5.831143428212687 ], [ -55.159525937651658, 5.831370774597041 ], [ -55.160943752375893, 5.832102416597602 ] ] ] } },
{ "type": "Feature", "properties": { "id": null, "Name": "Nieuwe Keizersstraat" }, "geometry": { "type": "MultiLineString", "coordinates": [ [ [ -55.154156429410222, 5.825136316702443 ], [ -55.154999677817699, 5.825716049982542 ], [ -55.155946265490741, 5.826257547734369 ], [ -55.15621494758134, 5.826389821994357 ], [ -55.156810148432228, 5.826704877255525 ], [ -55.157525289469341, 5.827100796141793 ], [ -55.157595560169959, 5.827144198633352 ], [ -55.158771561012649, 5.827832438142354 ], [ -55.15952490425903, 5.828255095738716 ], [ -55.160662669573426, 5.828888565436948 ], [ -55.164229941022491, 5.830864412195521 ], [ -55.166772086956641, 5.832294627631645 ] ] ] } },
{ "type": "Feature", "properties": { "id": null, "Name": "Graven- of Soldatenstraat" }, "geometry": { "type": "MultiLineString", "coordinates": [ [ [ -55.160943752375893, 5.832102416597602 ], [ -55.162998136976341, 5.832993201067207 ], [ -55.165284001531774, 5.834026593723366 ], [ -55.165474145780507, 5.834096864423985 ], [ -55.165684957882362, 5.834204337260226 ] ] ] } },
{ "type": "Feature", "properties": { "id": null, "Name": "Waagewegstraat" }, "geometry": { "type": "MultiLineString", "coordinates": [ [ [ -55.165980008474342, 5.833706966707554 ], [ -55.165581618616734, 5.83345202740654 ], [ -55.165172395124891, 5.833183345315938 ], [ -55.164254742446232, 5.832654248275984 ], [ -55.1634445626038, 5.832183021224776 ], [ -55.161377777291484, 5.830976018602383 ], [ -55.159988897561604, 5.830132770194958 ], [ -55.159807020454117, 5.830041831641215 ], [ -55.157984115808652, 5.828987771131934 ], [ -55.156892853163747, 5.828326399831993 ], [ -55.155503973433873, 5.827532754272063 ], [ -55.155359298462017, 5.827437682147696 ] ] ] } },
{ "type": "Feature", "properties": { "id": null, "Name": "Watermolenstraat" }, "geometry": { "type": "MultiLineString", "coordinates": [ [ [ -55.153569462381547, 5.828008114893904 ], [ -55.154123360845247, 5.827137998277419 ], [ -55.154404443647728, 5.826648170158391 ], [ -55.154491248630841, 5.826536563751525 ], [ -55.154590454325835, 5.826391888779663 ], [ -55.154999677817699, 5.825716049982542 ], [ -55.15535929846201, 5.825217954722267 ], [ -55.155770588739131, 5.824594818950617 ] ] ] } },
{ "type": "Feature", "properties": { "id": null, "Name": "Oranjestraat" }, "geometry": { "type": "MultiLineString", "coordinates": [ [ [ -55.152399661894776, 5.827332276096777 ], [ -55.152534002940087, 5.826885850469306 ], [ -55.152655943273494, 5.826416690203421 ], [ -55.152732414330067, 5.825860724954397 ], [ -55.152802685030686, 5.825257223643201 ] ] ] } },
{ "type": "Feature", "properties": { "id": null, "Name": "Kromelleboog" }, "geometry": { "type": "MultiLineString", "coordinates": [ [ [ -55.153621132014358, 5.82686311583088 ], [ -55.15397041873215, 5.82635468664404 ], [ -55.153949750879029, 5.826011600282196 ], [ -55.153875346607784, 5.82516835187477 ] ] ] } },
{ "type": "Feature", "properties": { "id": null, "Name": "Oude Hofstraat" }, "geometry": { "type": "MultiLineString", "coordinates": [ [ [ -55.154404443647728, 5.826648170158391 ], [ -55.15397041873215, 5.82635468664404 ] ] ] } },
{ "type": "Feature", "properties": { "id": null, "Name": "[naamloos]" }, "geometry": { "type": "MultiLineString", "coordinates": [ [ [ -55.154491248630841, 5.826536563751525 ], [ -55.154595621289126, 5.826577899457772 ], [ -55.154914690169406, 5.826717859846365 ], [ -55.155104050475963, 5.82679077834494 ] ] ] } },
{ "type": "Feature", "properties": { "id": null, "Name": "Oude Oranjetuin" }, "geometry": { "type": "MultiLineString", "coordinates": [ [ [ -55.155104050475963, 5.82679077834494 ], [ -55.154635923602704, 5.82745214964489 ] ] ] } },
{ "type": "Feature", "properties": { "id": null, "Name": "Korte Kerkstraat" }, "geometry": { "type": "MultiLineString", "coordinates": [ [ [ -55.155946265490741, 5.826257547734369 ], [ -55.155664149295603, 5.826691572649947 ] ] ] } },
{ "type": "Feature", "properties": { "id": null, "Name": "Oude Oranjetuin" }, "geometry": { "type": "MultiLineString", "coordinates": [ [ [ -55.155359298462017, 5.827437682147696 ], [ -55.155730286425594, 5.82682798048056 ], [ -55.155664149295603, 5.826691572649947 ] ] ] } },
{ "type": "Feature", "properties": { "id": null, "Name": "Oude Oranjetuin" }, "geometry": { "type": "MultiLineString", "coordinates": [ [ [ -55.155359298462017, 5.827437682147696 ], [ -55.155149519752833, 5.827772501368289 ] ] ] } },
{ "type": "Feature", "properties": { "id": null, "Name": "Oude Oranjetuin" }, "geometry": { "type": "MultiLineString", "coordinates": [ [ [ -55.155664149295603, 5.826691572649947 ], [ -55.15552567467968, 5.826720507644319 ], [ -55.155327263289699, 5.826732908356194 ], [ -55.155137119040965, 5.826691572649947 ], [ -55.155104050475963, 5.82679077834494 ] ] ] } },
{ "type": "Feature", "properties": { "id": null, "Name": "Klipsteenstraat" }, "geometry": { "type": "MultiLineString", "coordinates": [ [ [ -55.157595560169959, 5.827144198633352 ], [ -55.157524256076677, 5.827218602904587 ], [ -55.157239039703576, 5.827749766729853 ], [ -55.156892853163747, 5.828326399831993 ], [ -55.156673773920659, 5.828686020476345 ], [ -55.156171545089762, 5.829475532465647 ] ] ] } },
{ "type": "Feature", "properties": { "id": null, "Name": "Krabbesteeg" }, "geometry": { "type": "MultiLineString", "coordinates": [ [ [ -55.15535929846201, 5.825217954722267 ], [ -55.155285927583435, 5.825180752586645 ], [ -55.154918039797842, 5.824893469428233 ], [ -55.154856036238471, 5.824835599439488 ] ] ] } },
{ "type": "Feature", "properties": { "id": null, "Name": "[naamloos]" }, "geometry": { "type": "MultiLineString", "coordinates": [ [ [ -55.158771561012649, 5.827832438142354 ], [ -55.158388172337212, 5.82841837177839 ], [ -55.157984115808652, 5.828987771131934 ], [ -55.157777437277439, 5.829301922499416 ] ] ] } },
{ "type": "Feature", "properties": { "id": null, "Name": "[naamloos]" }, "geometry": { "type": "MultiLineString", "coordinates": [ [ [ -55.161377777291484, 5.830976018602383 ], [ -55.160943752375893, 5.832102416597602 ], [ -55.160523161564889, 5.833202979776403 ] ] ] } },
{ "type": "Feature", "properties": { "id": null, "Name": "Knuffelstraat" }, "geometry": { "type": "MultiLineString", "coordinates": [ [ [ -55.156404058437353, 5.824427409340318 ], [ -55.156459861640862, 5.824505947182175 ], [ -55.156757478725837, 5.825799754787685 ] ] ] } },
{ "type": "Feature", "properties": { "id": null, "Name": "Quartaroliestraat" }, "geometry": { "type": "MultiLineString", "coordinates": [ [ [ -55.156757478725837, 5.825799754787685 ], [ -55.15621494758134, 5.826389821994357 ] ] ] } },
{ "type": "Feature", "properties": { "id": null, "Name": "Heilgeweg" }, "geometry": { "type": "MultiLineString", "coordinates": [ [ [ -55.157525289469341, 5.827100796141793 ], [ -55.157147695794102, 5.82591943050963 ], [ -55.156712009448945, 5.824332337215941 ] ] ] } },
{ "type": "Feature", "properties": { "id": null, "Name": "Kerkstraat" }, "geometry": { "type": "MultiLineString", "coordinates": [ [ [ -55.156810148432228, 5.826704877255525 ], [ -55.157147695794102, 5.82591943050963 ], [ -55.158768460834708, 5.825361596301474 ], [ -55.16046322479081, 5.824923437815262 ], [ -55.161736364543195, 5.824543149317797 ] ] ] } },
{ "type": "Feature", "properties": { "id": null, "Name": "Dominostraat" }, "geometry": { "type": "MultiLineString", "coordinates": [ [ [ -55.157595560169959, 5.827144198633352 ], [ -55.157668931048555, 5.827077028110697 ], [ -55.159132215049674, 5.826688472471981 ], [ -55.160798044011401, 5.826221378991398 ], [ -55.162327465142539, 5.825812155499559 ] ] ] } },
{ "type": "Feature", "properties": { "id": null, "Name": "Jodenbreestraat" }, "geometry": { "type": "MultiLineString", "coordinates": [ [ [ -55.15952490425903, 5.828255095738716 ], [ -55.159132215049674, 5.826688472471981 ], [ -55.158768460834708, 5.825361596301474 ], [ -55.158395750550412, 5.823804962497107 ] ] ] } },
{ "type": "Feature", "properties": { "id": null, "Name": "Steenbakkersstraat" }, "geometry": { "type": "MultiLineString", "coordinates": [ [ [ -55.161200033754689, 5.827916142947496 ], [ -55.160798044011401, 5.826221378991398 ], [ -55.16046322479081, 5.824923437815262 ], [ -55.160107737717134, 5.82361102914194 ], [ -55.160044700765106, 5.823400217040084 ] ] ] } },
{ "type": "Feature", "properties": { "id": null, "Name": "Steenbakkersgracht" }, "geometry": { "type": "MultiLineString", "coordinates": [ [ [ -55.160107737717134, 5.82361102914194 ], [ -55.160539695847405, 5.823842509096919 ], [ -55.161736364543195, 5.824543149317797 ], [ -55.162705686854714, 5.825115648849305 ], [ -55.163908555906481, 5.825805955143619 ], [ -55.165132092811376, 5.826487994296683 ], [ -55.166343229004397, 5.827186567732247 ], [ -55.168943244927284, 5.828674653157115 ] ] ] } },
{ "type": "Feature", "properties": { "id": null, "Name": "Zwartehavenbrugstraat" }, "geometry": { "type": "MultiLineString", "coordinates": [ [ [ -55.159988897561604, 5.830132770194958 ], [ -55.1603061491071, 5.829538569417663 ], [ -55.160662669573426, 5.828888565436948 ], [ -55.161116328949525, 5.828075285416543 ], [ -55.161200033754689, 5.827916142947496 ], [ -55.161521418870748, 5.827318841992235 ], [ -55.162013313775077, 5.82642185716669 ], [ -55.162327465142539, 5.825812155499559 ], [ -55.162705686854714, 5.825115648849305 ], [ -55.1627883582672, 5.825010242798376 ], [ -55.162854495397191, 5.824919304244633 ], [ -55.163240984250756, 5.824216252774247 ], [ -55.163528267409006, 5.823704034480992 ], [ -55.164181371567693, 5.82253423399422 ], [ -55.164838609297, 5.821360299936822 ], [ -55.164863410720749, 5.821265227812456 ], [ -55.164929547850747, 5.821153621405591 ], [ -55.1650246199751, 5.821066816422474 ], [ -55.165268500641965, 5.820550120094394 ], [ -55.165566117726939, 5.819992088060068 ], [ -55.166227489026895, 5.818826421143922 ], [ -55.166363896857504, 5.818508136205826 ], [ -55.166836157301461, 5.817604951024361 ], [ -55.166969464954107, 5.817344536075009 ], [ -55.167205078479626, 5.816914644730031 ] ] ] } },
{ "type": "Feature", "properties": { "id": null, "Name": "Saramaccastraat" }, "geometry": { "type": "MultiLineString", "coordinates": [ [ [ -55.160044700765106, 5.823400217040084 ], [ -55.160091203434625, 5.823358881333835 ], [ -55.160231744835869, 5.823267942780094 ], [ -55.161178332508904, 5.822722311457642 ], [ -55.161967844498378, 5.82225969601192 ], [ -55.1631955149739, 5.821601080425732 ], [ -55.164584394703596, 5.820887006100304 ], [ -55.164786939664218, 5.820783666834685 ], [ -55.165268500641965, 5.820550120094394 ] ] ] } },
{ "type": "Feature", "properties": { "id": null, "Name": "Rust en Vreedestraat" }, "geometry": { "type": "MultiLineString", "coordinates": [ [ [ -55.162998136976341, 5.832993201067207 ], [ -55.1634445626038, 5.832183021224776 ], [ -55.164229941022491, 5.830864412195521 ], [ -55.165131059418741, 5.829310189640649 ], [ -55.165594019328708, 5.828471074803849 ], [ -55.166343229004397, 5.827186567732247 ], [ -55.166385598103318, 5.827063594006162 ], [ -55.166451735233316, 5.826962321525859 ], [ -55.167152375454194, 5.825759452474091 ], [ -55.167797212471633, 5.824585518416695 ], [ -55.168152699545359, 5.82395721568175 ], [ -55.168235370957852, 5.823775338574267 ], [ -55.169194359342768, 5.82204750605317 ], [ -55.169867097961948, 5.820841536823443 ] ] ] } },
{ "type": "Feature", "properties": { "id": null, "Name": "Wanicastraat" }, "geometry": { "type": "MultiLineString", "coordinates": [ [ [ -55.165684957882362, 5.834204337260226 ], [ -55.165980008474342, 5.833706966707554 ], [ -55.166325661329303, 5.833080006050321 ], [ -55.166772086956641, 5.832294627631645 ], [ -55.16725984829047, 5.831558852060456 ], [ -55.167724874985808, 5.83080654220678 ], [ -55.168943244927284, 5.828674653157115 ], [ -55.169000081523436, 5.828570280498846 ], [ -55.16905795151218, 5.828462807662606 ], [ -55.169756524947744, 5.827280606463961 ], [ -55.169744124235862, 5.827284740034584 ], [ -55.170554304078287, 5.825904127445957 ], [ -55.17063697549078, 5.825800788180341 ], [ -55.171663823327059, 5.824087423156459 ], [ -55.17194318380816, 5.823622396461159 ], [ -55.172645890814351, 5.822427794550641 ], [ -55.173443669944909, 5.821067849815137 ], [ -55.174128292579638, 5.819890815579783 ], [ -55.175297262757447, 5.8178875945992 ] ] ] } },
{ "type": "Feature", "properties": { "id": null, "Name": "Groote Dwarsstraat" }, "geometry": { "type": "MultiLineString", "coordinates": [ [ [ -55.168374878966446, 5.817741358854964 ], [ -55.168060727598977, 5.818270455894917 ], [ -55.167403489869656, 5.819465057805436 ], [ -55.166750385710948, 5.820678260783764 ], [ -55.166060079416653, 5.82192246554178 ], [ -55.16597740800416, 5.822058873372392 ], [ -55.16588646945042, 5.822215949056129 ], [ -55.165349105269215, 5.823216273147289 ], [ -55.164704268251768, 5.82438607363406 ], [ -55.1640387633812, 5.825568274832706 ], [ -55.163968492680581, 5.82567988123957 ], [ -55.163908555906481, 5.825805955143619 ], [ -55.163199648544406, 5.827089428822569 ] ] ] } },
{ "type": "Feature", "properties": { "id": null, "Name": "Buurenstraat" }, "geometry": { "type": "MultiLineString", "coordinates": [ [ [ -55.162013313775077, 5.82642185716669 ], [ -55.163199648544406, 5.827089428822569 ], [ -55.164427319019921, 5.827779735116884 ], [ -55.165594019328708, 5.828471074803849 ] ] ] } },
{ "type": "Feature", "properties": { "id": null, "Name": "Weydestraat" }, "geometry": { "type": "MultiLineString", "coordinates": [ [ [ -55.161521418870748, 5.827318841992235 ], [ -55.165131059418741, 5.829310189640649 ], [ -55.167724874985808, 5.83080654220678 ] ] ] } },
{ "type": "Feature", "properties": { "id": null, "Name": "[naamloos]" }, "geometry": { "type": "MultiLineString", "coordinates": [ [ [ -55.165684957882362, 5.834204337260226 ], [ -55.166766919993456, 5.834604260218155 ], [ -55.169029360982243, 5.835420295952326 ] ] ] } },
{ "type": "Feature", "properties": { "id": null, "Name": "[naamloos]" }, "geometry": null },
{ "type": "Feature", "properties": { "id": null, "Name": "Gemeene Landsweg" }, "geometry": { "type": "MultiLineString", "coordinates": [ [ [ -55.166227489026895, 5.818826421143922 ], [ -55.167403489869656, 5.819465057805436 ], [ -55.168010091358838, 5.819782309350882 ], [ -55.168666295695495, 5.820166731418972 ], [ -55.169867097961948, 5.820841536823443 ], [ -55.171039998626696, 5.821497741160104 ], [ -55.172290403740654, 5.822221116019417 ], [ -55.17266035831156, 5.822423660980024 ] ] ] } },
{ "type": "Feature", "properties": { "id": null, "Name": "Verlengde Gemeene Landsweg" }, "geometry": { "type": "MultiLineString", "coordinates": [ [ [ -55.17266035831156, 5.822423660980024 ], [ -55.172743029724053, 5.82245156258174 ], [ -55.174198687845092, 5.824031476516498 ] ] ] } },
{ "type": "Feature", "properties": { "id": null, "Name": "Commissarisstraat" }, "geometry": { "type": "MultiLineString", "coordinates": [ [ [ -55.166836157301461, 5.817604951024361 ], [ -55.168060727598977, 5.818270455894917 ] ] ] } },
{ "type": "Feature", "properties": { "id": null, "Name": "Hofstraat" }, "geometry": { "type": "MultiLineString", "coordinates": [ [ [ -55.164427319019921, 5.827779735116884 ], [ -55.165132092811376, 5.826487994296683 ], [ -55.165186862622249, 5.826384655031082 ], [ -55.165248866181614, 5.826281315765465 ], [ -55.165947439617177, 5.825074313143072 ], [ -55.166594687884235, 5.823903479263655 ], [ -55.16708003796834, 5.82301166140138 ], [ -55.16716684295146, 5.822866986429518 ], [ -55.16798115636449, 5.82137890100465 ], [ -55.168666295695495, 5.820166731418972 ] ] ] } },
{ "type": "Feature", "properties": { "id": null, "Name": "[naamloos]" }, "geometry": { "type": "MultiLineString", "coordinates": [ [ [ -55.169328700388135, 5.825128049561192 ], [ -55.168460650556959, 5.826533463573567 ], [ -55.167733142127027, 5.827690863348464 ] ] ] } },
{ "type": "Feature", "properties": { "id": null, "Name": "Steenbakkersgracht" }, "geometry": { "type": "MultiLineString", "coordinates": [ [ [ -55.162854495397191, 5.824919304244633 ], [ -55.1640387633812, 5.825568274832706 ], [ -55.165248866181614, 5.826281315765465 ], [ -55.166451735233316, 5.826962321525859 ], [ -55.167733142127027, 5.827690863348464 ], [ -55.16905795151218, 5.828462807662606 ] ] ] } },
{ "type": "Feature", "properties": { "id": null, "Name": "Verlengde Weidestraat" }, "geometry": null },
{ "type": "Feature", "properties": { "id": null, "Name": "Keizerstraat" }, "geometry": null },
{ "type": "Feature", "properties": { "id": null, "Name": "Van Radersstraat" }, "geometry": null },
{ "type": "Feature", "properties": { "id": null, "Name": "Oranjelaan" }, "geometry": null },
{ "type": "Feature", "properties": { "id": null, "Name": "Sophialaan" }, "geometry": null },
{ "type": "Feature", "properties": { "id": null, "Name": "Van Sijpesteijnlaan" }, "geometry": null },
{ "type": "Feature", "properties": { "id": null, "Name": "Van Idsingastraat" }, "geometry": null },
{ "type": "Feature", "properties": { "id": null, "Name": "" }, "geometry": null },
{ "type": "Feature", "properties": { "id": null, "Name": "" }, "geometry": null },
{ "type": "Feature", "properties": { "id": null, "Name": "" }, "geometry": null },
{ "type": "Feature", "properties": { "id": null, "Name": "" }, "geometry": null },
{ "type": "Feature", "properties": { "id": null, "Name": "weg naar Zee" }, "geometry": null },
{ "type": "Feature", "properties": { "id": null, "Name": "Weg of oude laan naar Charlesburg" }, "geometry": { "type": "MultiLineString", "coordinates": [ [ [ -55.165684957882362, 5.834204337260226 ], [ -55.164885143313391, 5.836039505528703 ] ] ] } },
{ "type": "Feature", "properties": { "id": null, "Name": "Weg of oude laan naar Charlesburg" }, "geometry": null },
{ "type": "Feature", "properties": { "id": null, "Name": "" }, "geometry": null },
{ "type": "Feature", "properties": { "id": null, "Name": "" }, "geometry": null },
{ "type": "Feature", "properties": { "id": null, "Name": "" }, "geometry": null },
{ "type": "Feature", "properties": { "id": null, "Name": "" }, "geometry": null },
{ "type": "Feature", "properties": { "id": null, "Name": "" }, "geometry": null },
{ "type": "Feature", "properties": { "id": null, "Name": "" }, "geometry": null },
{ "type": "Feature", "properties": { "id": null, "Name": "" }, "geometry": null },
{ "type": "Feature", "properties": { "id": null, "Name": "" }, "geometry": null },
{ "type": "Feature", "properties": { "id": null, "Name": "" }, "geometry": null },
{ "type": "Feature", "properties": { "id": null, "Name": "" }, "geometry": null },
{ "type": "Feature", "properties": { "id": null, "Name": "" }, "geometry": null },
{ "type": "Feature", "properties": { "id": null, "Name": "" }, "geometry": null },
{ "type": "Feature", "properties": { "id": null, "Name": "" }, "geometry": null },
{ "type": "Feature", "properties": { "id": null, "Name": "" }, "geometry": null },
{ "type": "Feature", "properties": { "id": null, "Name": "" }, "geometry": null },
{ "type": "Feature", "properties": { "id": null, "Name": "" }, "geometry": null },
{ "type": "Feature", "properties": { "id": null, "Name": "" }, "geometry": null },
{ "type": "Feature", "properties": { "id": null, "Name": "" }, "geometry": null },
{ "type": "Feature", "properties": { "id": null, "Name": "" }, "geometry": null },
{ "type": "Feature", "properties": { "id": null, "Name": "" }, "geometry": null },
{ "type": "Feature", "properties": { "id": null, "Name": "" }, "geometry": null },
{ "type": "Feature", "properties": { "id": null, "Name": "" }, "geometry": null },
{ "type": "Feature", "properties": { "id": null, "Name": "[naamloos]" }, "geometry": null },
{ "type": "Feature", "properties": { "id": null, "Name": "" }, "geometry": null },
{ "type": "Feature", "properties": { "id": null, "Name": "[naamloos]" }, "geometry": null },
{ "type": "Feature", "properties": { "id": null, "Name": "Verlengde Hoogestraat" }, "geometry": null },
{ "type": "Feature", "properties": { "id": null, "Name": "Hoogestraat" }, "geometry": { "type": "MultiLineString", "coordinates": [ [ [ -55.169756524947744, 5.827280606463961 ], [ -55.168460650556959, 5.826533463573567 ], [ -55.167152375454194, 5.825759452474091 ], [ -55.165947439617177, 5.825074313143072 ], [ -55.164704268251768, 5.82438607363406 ], [ -55.163528267409006, 5.823704034480992 ], [ -55.162423915123973, 5.823083654423098 ], [ -55.162164878031497, 5.823155302980592 ] ] ] } },
{ "type": "Feature", "properties": { "id": null, "Name": "Ladesmastraat" }, "geometry": { "type": "MultiLineString", "coordinates": [ [ [ -55.161576533145912, 5.824300302043614 ], [ -55.161606845997163, 5.824202474205498 ], [ -55.162361911564595, 5.823991662103642 ], [ -55.162164878031497, 5.823155302980592 ], [ -55.161967844498378, 5.82225969601192 ] ] ] } },
{ "type": "Feature", "properties": { "id": null, "Name": "[naamloos]" }, "geometry": { "type": "MultiLineString", "coordinates": [ [ [ -55.162361911564595, 5.823991662103642 ], [ -55.162659528649563, 5.823918635689274 ], [ -55.163240984250756, 5.824216252774247 ] ] ] } },
{ "type": "Feature", "properties": { "id": null, "Name": "Timmermanstraat" }, "geometry": { "type": "MultiLineString", "coordinates": [ [ [ -55.164863410720749, 5.821265227812456 ], [ -55.164733203246264, 5.821278661917009 ], [ -55.163420105644512, 5.822028216056943 ], [ -55.162392224415854, 5.822670297360636 ], [ -55.162423915123973, 5.823083654423098 ] ] ] } },
{ "type": "Feature", "properties": { "id": null, "Name": "Prinsestraat" }, "geometry": { "type": "MultiLineString", "coordinates": [ [ [ -55.1631955149739, 5.821601080425732 ], [ -55.163420105644512, 5.822028216056943 ], [ -55.163544112763262, 5.822129488537249 ], [ -55.164181371567693, 5.82253423399422 ], [ -55.165349105269215, 5.823216273147289 ], [ -55.166594687884235, 5.823903479263655 ], [ -55.167797212471633, 5.824585518416695 ] ] ] } },
{ "type": "Feature", "properties": { "id": null, "Name": "[naamloos]" }, "geometry": { "type": "MultiLineString", "coordinates": [ [ [ -55.171663823327059, 5.824087423156459 ], [ -55.169411716265003, 5.824378839885489 ], [ -55.168765501390638, 5.824493202006101 ], [ -55.168440327168149, 5.8245207591436 ], [ -55.167797212471633, 5.824585518416695 ] ] ] } },
{ "type": "Feature", "properties": { "id": null, "Name": "Drambrandersgracht" }, "geometry": { "type": "MultiLineString", "coordinates": [ [ [ -55.1650246199751, 5.821066816422474 ], [ -55.166060079416653, 5.82192246554178 ], [ -55.16716684295146, 5.822866986429518 ], [ -55.168235370957852, 5.823775338574267 ] ] ] } },
{ "type": "Feature", "properties": { "id": null, "Name": "[naamloos]" }, "geometry": { "type": "MultiLineString", "coordinates": [ [ [ -55.164838609297, 5.821360299936822 ], [ -55.16588646945042, 5.822215949056129 ] ] ] } },
{ "type": "Feature", "properties": { "id": null, "Name": "[naamloos]" }, "geometry": { "type": "MultiLineString", "coordinates": [ [ [ -55.170554304078287, 5.825904127445957 ], [ -55.169328700388135, 5.825128049561192 ], [ -55.168440327168149, 5.8245207591436 ] ] ] } },
{ "type": "Feature", "properties": { "id": null, "Name": "Pontenwerfstraat" }, "geometry": { "type": "MultiLineString", "coordinates": [ [ [ -55.17194318380816, 5.823622396461159 ], [ -55.170355548224258, 5.822693720927512 ], [ -55.169194359342768, 5.82204750605317 ], [ -55.16798115636449, 5.82137890100465 ], [ -55.166750385710948, 5.820678260783764 ], [ -55.165566117726939, 5.819992088060068 ] ] ] } },
{ "type": "Feature", "properties": { "id": null, "Name": "[naamloos]" }, "geometry": { "type": "MultiLineString", "coordinates": [ [ [ -55.171039998626696, 5.821497741160104 ], [ -55.170355548224258, 5.822693720927512 ], [ -55.169411716265003, 5.824378839885489 ] ] ] } },
{ "type": "Feature", "properties": { "id": null, "Name": "Van Lansbergestraat" }, "geometry": null },
{ "type": "Feature", "properties": { "id": null, "Name": "" }, "geometry": null },
{ "type": "Feature", "properties": { "id": null, "Name": "" }, "geometry": null },
{ "type": "Feature", "properties": { "id": null, "Name": "[naamloos]" }, "geometry": null },
{ "type": "Feature", "properties": { "id": null, "Name": "[naamloos]" }, "geometry": { "type": "MultiLineString", "coordinates": [ [ [ -55.139476362166967, 5.831707211215725 ], [ -55.141883454370884, 5.832926804599215 ], [ -55.142231909623625, 5.833094918975388 ], [ -55.143890128697706, 5.83390186798101 ], [ -55.145076099205781, 5.834320625608916 ], [ -55.146243729963892, 5.834724100111726 ], [ -55.14746790828486, 5.835176480614872 ] ] ] } },
{ "type": "Feature", "properties": { "id": null, "Name": "[naamloos]" }, "geometry": { "type": "MultiLineString", "coordinates": [ [ [ -55.139476362166967, 5.831707211215725 ], [ -55.141240798960162, 5.831018706429684 ], [ -55.146329315464655, 5.829096853447542 ] ], [ [ -55.146509656340911, 5.829182438948138 ], [ -55.146329315464655, 5.829096853447542 ] ] ] } },
{ "type": "Feature", "properties": { "id": null, "Name": "[naamloos]" }, "geometry": { "type": "MultiLineString", "coordinates": [ [ [ -55.142231909623625, 5.833094918975388 ], [ -55.143552371632829, 5.830865111022358 ] ] ] } },
{ "type": "Feature", "properties": { "id": null, "Name": "[naamloos]" }, "geometry": { "type": "MultiLineString", "coordinates": [ [ [ -55.14882199316952, 5.832754105285513 ], [ -55.147550437160668, 5.832332291032575 ], [ -55.146388919652573, 5.831898250279552 ], [ -55.145202949144313, 5.831470322776572 ], [ -55.143552371632829, 5.830865111022358 ], [ -55.143210029630445, 5.830577788270356 ], [ -55.142989952628938, 5.830363824518867 ] ] ] } },
{ "type": "Feature", "properties": { "id": null, "Name": "[naamloos]" }, "geometry": { "type": "MultiLineString", "coordinates": [ [ [ -55.143890128697706, 5.83390186798101 ], [ -55.144573284389942, 5.832644066784749 ], [ -55.145202949144313, 5.831470322776572 ], [ -55.145905972899222, 5.830223219767888 ], [ -55.146509656340911, 5.829182438948138 ], [ -55.146651789404416, 5.82894555050899 ], [ -55.14699718803184, 5.828358678504904 ] ] ] } },
{ "type": "Feature", "properties": { "id": null, "Name": "[naamloos]" }, "geometry": { "type": "MultiLineString", "coordinates": [ [ [ -55.144573284389942, 5.832644066784749 ], [ -55.145730216960452, 5.833036843099982 ], [ -55.145760783210669, 5.833012390099811 ], [ -55.145919727711771, 5.83310408885045 ], [ -55.146928413968794, 5.833464770602962 ], [ -55.148126610977144, 5.833898811355985 ] ] ] } },
{ "type": "Feature", "properties": { "id": null, "Name": "[naamloos]" }, "geometry": { "type": "MultiLineString", "coordinates": [ [ [ -55.145905972899222, 5.830223219767888 ], [ -55.147062905469731, 5.830689355083633 ], [ -55.148212196477736, 5.831129509086699 ], [ -55.149465412736468, 5.831594116089933 ] ] ] } },
{ "type": "Feature", "properties": { "id": null, "Name": "[naamloos]" }, "geometry": { "type": "MultiLineString", "coordinates": [ [ [ -55.146651789404416, 5.82894555050899 ], [ -55.147796495474836, 5.829430025574863 ], [ -55.148860200982242, 5.829900745828143 ], [ -55.150095077490839, 5.830435655206868 ] ] ] } },
{ "type": "Feature", "properties": { "id": null, "Name": "[naamloos]" }, "geometry": { "type": "MultiLineString", "coordinates": [ [ [ -55.148860200982242, 5.829900745828143 ], [ -55.148909106982586, 5.829818216952568 ], [ -55.148627897480623, 5.829127419697757 ], [ -55.148157177227333, 5.827910882939284 ] ] ] } },
{ "type": "Feature", "properties": { "id": null, "Name": "[naamloos]" }, "geometry": { "type": "MultiLineString", "coordinates": [ [ [ -55.14699718803184, 5.828358678504904 ], [ -55.148157177227333, 5.827910882939284 ], [ -55.148740992606385, 5.827648013187454 ] ] ] } },
{ "type": "Feature", "properties": { "id": null, "Name": "[naamloos]" }, "geometry": { "type": "MultiLineString", "coordinates": [ [ [ -55.147796495474836, 5.829430025574863 ], [ -55.147062905469731, 5.830689355083633 ], [ -55.146388919652573, 5.831898250279552 ], [ -55.145760783210669, 5.833012390099811 ], [ -55.145076099205781, 5.834320625608916 ], [ -55.145076099205781, 5.834320625608916 ] ] ] } },
{ "type": "Feature", "properties": { "id": null, "Name": "[naamloos]" }, "geometry": { "type": "MultiLineString", "coordinates": [ [ [ -55.148860200982242, 5.829900745828143 ], [ -55.148212196477736, 5.831129509086699 ], [ -55.147550437160668, 5.832332291032575 ], [ -55.146928413968794, 5.833464770602962 ], [ -55.146243729963892, 5.834724100111726 ] ] ] } },
{ "type": "Feature", "properties": { "id": null, "Name": "[naamloos]" }, "geometry": { "type": "MultiLineString", "coordinates": [ [ [ -55.14746790828486, 5.835176480614872 ], [ -55.147500002847593, 5.835109234864402 ], [ -55.148126610977144, 5.833898811355985 ], [ -55.14882199316952, 5.832754105285513 ], [ -55.149465412736468, 5.831594116089933 ], [ -55.150095077490839, 5.830435655206868 ], [ -55.150620816994383, 5.829491158075281 ], [ -55.151992477472561, 5.827129151090101 ] ] ] } },
{ "type": "Feature", "properties": { "id": null, "Name": "[naamloos]" }, "geometry": { "type": "MultiLineString", "coordinates": [ [ [ -55.139476362166967, 5.831707211215725 ], [ -55.139228775540026, 5.831661361840393 ], [ -55.139051491288797, 5.831826419591542 ], [ -55.137743255779682, 5.832040383343032 ], [ -55.136557285271422, 5.832584462596822 ] ] ] } },
{ "type": "Feature", "properties": { "id": null, "Name": "Rijweg naar de Plantage Ma Retraite en langs de rivier" }, "geometry": { "type": "MultiLineString", "coordinates": [ [ [ -55.155570906656401, 5.831159403967134 ], [ -55.15552822846594, 5.83124107589996 ], [ -55.153883764204473, 5.834426079172143 ], [ -55.152579349476603, 5.837019625502704 ], [ -55.152123148192189, 5.837873952196155 ], [ -55.151417869080703, 5.839432289268551 ] ] ] } },
{ "type": "Feature", "properties": { "id": null, "Name": "[naamloos]" }, "geometry": { "type": "MultiLineString", "coordinates": [ [ [ -55.14699718803184, 5.828358678504904 ], [ -55.146985725687664, 5.828307480035805 ], [ -55.146102361056514, 5.827821476657422 ] ] ] } },
{ "type": "Feature", "properties": { "id": null, "Name": "Kleine Combéweg" }, "geometry": { "type": "MultiLineString", "coordinates": [ [ [ -55.148740992606385, 5.827648013187454 ], [ -55.148984758451611, 5.827534153905421 ], [ -55.150094162878823, 5.826281832461797 ], [ -55.150195181960036, 5.826164785895886 ] ] ] } },
{ "type": "Feature", "properties": { "id": null, "Name": "'t Plein" }, "geometry": { "type": "MultiLineString", "coordinates": [ [ [ -55.150195181960036, 5.826164785895886 ], [ -55.150237974710329, 5.826132691333163 ], [ -55.150461108336877, 5.82593401070678 ], [ -55.150922658715089, 5.825613065079545 ], [ -55.151025055653342, 5.825545819329077 ], [ -55.151151905591696, 5.825490800078694 ], [ -55.151640965595099, 5.825930954081758 ], [ -55.152386782100308, 5.826291635834269 ], [ -55.151951213034771, 5.827090943277335 ], [ -55.150873752714766, 5.826481146585588 ], [ -55.150237974710329, 5.826132691333163 ] ], [ [ -55.151992477472561, 5.827129151090101 ], [ -55.151951213034771, 5.827090943277335 ] ], [ [ -55.150461108336877, 5.82593401070678 ], [ -55.150491674587109, 5.825979860082098 ], [ -55.151047980340984, 5.825955407081928 ], [ -55.151640965595099, 5.825930954081758 ], [ -55.151830476346426, 5.826114351583034 ], [ -55.151916061847025, 5.8263680514598 ], [ -55.151928288347108, 5.826688997087035 ], [ -55.151857985971617, 5.826906017463546 ], [ -55.151951213034771, 5.827090943277335 ] ], [ [ -55.151857985971617, 5.826906017463546 ], [ -55.151784626971107, 5.826817375337929 ], [ -55.151537040344387, 5.826575901961248 ], [ -55.151213038092131, 5.826407787585078 ], [ -55.150974621340467, 5.826395561084992 ], [ -55.151044923715958, 5.8260807287078 ], [ -55.151047980340984, 5.825955407081928 ] ], [ [ -55.150873752714766, 5.826481146585588 ], [ -55.150974621340467, 5.826395561084992 ] ], [ [ -55.151025055653342, 5.825545819329077 ], [ -55.151047980340984, 5.825955407081928 ] ] ] } },
{ "type": "Feature", "properties": { "id": null, "Name": "[naamloos]" }, "geometry": { "type": "MultiLineString", "coordinates": [ [ [ -55.151151905591696, 5.825490800078694 ], [ -55.151087716466307, 5.825385346515458 ], [ -55.151051036966052, 5.825076627388309 ] ] ] } },
{ "type": "Feature", "properties": { "id": null, "Name": "Noorderkerkstraat" }, "geometry": { "type": "MultiLineString", "coordinates": [ [ [ -55.154943874614247, 5.827646427464249 ], [ -55.154375508653359, 5.828464874447926 ] ] ] } },
{ "type": "Feature", "properties": { "id": null, "Name": "Plein van 12 mei 1874" }, "geometry": null },
{ "type": "Feature", "properties": { "id": null, "Name": "Noorderkerkstraat" }, "geometry": { "type": "MultiLineString", "coordinates": [ [ [ -55.154943874614247, 5.827646427464249 ], [ -55.154375508653359, 5.828464874447926 ] ] ] } },
{ "type": "Feature", "properties": { "id": null, "Name": "Noorderkerkstraat" }, "geometry": { "type": "MultiLineString", "coordinates": [ [ [ -55.154375508653359, 5.828464874447926 ], [ -55.154943874614247, 5.827646427464249 ] ] ] } },
{ "type": "Feature", "properties": { "id": null, "Name": "Kalkbrandersstraat" }, "geometry": null },
{ "type": "Feature", "properties": { "id": null, "Name": "Achtersteeg" }, "geometry": null }
]
}
