{
"type": "FeatureCollection",
"name": "streetsParamaribo1758map",
"crs": { "type": "name", "properties": { "name": "urn:ogc:def:crs:OGC:1.3:CRS84" } },
"features": [
{ "type": "Feature", "properties": { "id": null, "Name": "[naamloos]" }, "geometry": null },
{ "type": "Feature", "properties": { "id": null, "Name": "[naamloos]" }, "geometry": null },
{ "type": "Feature", "properties": { "id": null, "Name": "[naamloos]" }, "geometry": { "type": "MultiLineString", "coordinates": [ ] } },
{ "type": "Feature", "properties": { "id": null, "Name": "[naamloos]" }, "geometry": { "type": "MultiLineString", "coordinates": [ ] } },
{ "type": "Feature", "properties": { "id": null, "Name": "[naamloos]" }, "geometry": null },
{ "type": "Feature", "properties": { "id": null, "Name": "[naamloos]" }, "geometry": { "type": "MultiLineString", "coordinates": [ ] } },
{ "type": "Feature", "properties": { "id": null, "Name": "[naamloos]" }, "geometry": { "type": "MultiLineString", "coordinates": [ ] } },
{ "type": "Feature", "properties": { "id": null, "Name": "[naamloos]" }, "geometry": { "type": "MultiLineString", "coordinates": [ ] } },
{ "type": "Feature", "properties": { "id": null, "Name": "[naamloos]" }, "geometry": { "type": "MultiLineString", "coordinates": [ [ [ -55.151051036966052, 5.825076627388309 ], [ -55.151553313309357, 5.82521485454431 ], [ -55.151681453998719, 5.825293392386178 ] ] ] } },
{ "type": "Feature", "properties": { "id": null, "Name": "[naamloos]" }, "geometry": { "type": "MultiLineString", "coordinates": [ [ [ -55.15679597349294, 5.824481119032753 ], [ -55.156531124754544, 5.824567704197246 ], [ -55.155770588739131, 5.824594818950617 ], [ -55.155530841642907, 5.824541082532496 ], [ -55.154717003501233, 5.824913118810565 ], [ -55.154156429410222, 5.825136316702443 ], [ -55.153875346607784, 5.82516835187477 ], [ -55.153309047432174, 5.825214854544312 ], [ -55.152802685030686, 5.825257223643201 ], [ -55.152285988702594, 5.825272724533058 ], [ -55.151681453998719, 5.825293392386178 ] ] ] } },
{ "type": "Feature", "properties": { "id": null, "Name": "[naamloos]" }, "geometry": { "type": "MultiLineString", "coordinates": [ ] } },
{ "type": "Feature", "properties": { "id": null, "Name": "[naamloos]" }, "geometry": { "type": "MultiLineString", "coordinates": [ ] } },
{ "type": "Feature", "properties": { "id": null, "Name": "Heere Straat" }, "geometry": { "type": "MultiLineString", "coordinates": [ [ [ -55.152016657623456, 5.826344783668968 ], [ -55.152174702558227, 5.826287986270533 ], [ -55.152566728080025, 5.826496654973478 ], [ -55.153016785726322, 5.826775394379926 ], [ -55.153324232513505, 5.826968011644187 ], [ -55.153978019958544, 5.827299535589407 ], [ -55.15462810322542, 5.827668101316211 ], [ -55.154855910182185, 5.827790339195456 ], [ -55.155057787891856, 5.827928319831874 ], [ -55.156708925306148, 5.828858994594279 ], [ -55.157925747831349, 5.829548897776366 ] ] ] } },
{ "type": "Feature", "properties": { "id": null, "Name": "Graave Straat" }, "geometry": { "type": "MultiLineString", "coordinates": [ [ [ -55.151668464876529, 5.827041169162834 ], [ -55.152332747493006, 5.827453567664521 ], [ -55.153569462381547, 5.828008114893904 ], [ -55.154426225515763, 5.82854784362894 ], [ -55.155290061154076, 5.828978470598027 ], [ -55.156348693980213, 5.829610016715986 ], [ -55.158442942148, 5.830800341850842 ], [ -55.159100179877321, 5.831143428212687 ], [ -55.159525937651658, 5.831370774597041 ], [ -55.161083559711798, 5.832091353060163 ] ] ] } },
{ "type": "Feature", "properties": { "id": null, "Name": "Keyser Straat" }, "geometry": { "type": "MultiLineString", "coordinates": [ [ [ -55.154156429410222, 5.825136316702443 ], [ -55.154999677817699, 5.825716049982542 ], [ -55.155946265490741, 5.826257547734369 ], [ -55.15621494758134, 5.826389821994357 ], [ -55.156472269479572, 5.826526236951821 ], [ -55.157525289469341, 5.827100796141793 ], [ -55.157679419983829, 5.827196281623212 ], [ -55.158870313261851, 5.827804229863547 ], [ -55.159648190675206, 5.82824873124261 ], [ -55.160633502065473, 5.828826583035391 ], [ -55.164126542069361, 5.83075229265573 ], [ -55.165980483237959, 5.831770941649428 ] ] ] } },
{ "type": "Feature", "properties": { "id": null, "Name": "Graave Straat" }, "geometry": { "type": "MultiLineString", "coordinates": [ [ [ -55.161083559711798, 5.832091353060163 ], [ -55.162965282216504, 5.83283218869194 ], [ -55.165202605824604, 5.833697114292046 ] ] ] } },
{ "type": "Feature", "properties": { "id": null, "Name": "Waagen Weg" }, "geometry": { "type": "MultiLineString", "coordinates": [ [ [ -55.165298914456734, 5.833059995648718 ], [ -55.163404227328357, 5.832056163367653 ], [ -55.161377777291484, 5.830976018602383 ], [ -55.159988897561604, 5.830132770194958 ], [ -55.159807020454117, 5.830041831641215 ], [ -55.158124874578689, 5.82913223408013 ], [ -55.156935806218399, 5.828494133045636 ], [ -55.155257813512428, 5.827612538643829 ] ] ] } },
{ "type": "Feature", "properties": { "id": null, "Name": "Moole Straat" }, "geometry": { "type": "MultiLineString", "coordinates": [ [ [ -55.153569462381547, 5.828008114893904 ], [ -55.153978019958544, 5.827299535589407 ], [ -55.154298431369284, 5.826812436161514 ], [ -55.154491248630841, 5.826536563751525 ], [ -55.154590454325835, 5.826391888779663 ], [ -55.154999677817699, 5.825716049982542 ], [ -55.155302263650327, 5.825317800274419 ], [ -55.155770588739131, 5.824594818950617 ] ] ] } },
{ "type": "Feature", "properties": { "id": null, "Name": "Orange Straat" }, "geometry": { "type": "MultiLineString", "coordinates": [ [ [ -55.152332747493006, 5.827453567664521 ], [ -55.152441403385666, 5.826959677243339 ], [ -55.152566728080025, 5.826496654973478 ], [ -55.152676001335728, 5.825859536330154 ], [ -55.152802685030686, 5.825257223643201 ] ] ] } },
{ "type": "Feature", "properties": { "id": null, "Name": "Krom Elboog Steeg" }, "geometry": { "type": "MultiLineString", "coordinates": [ [ [ -55.153324232513505, 5.826968011644187 ], [ -55.153698354507547, 5.826442018345629 ], [ -55.153901596562967, 5.826154211141311 ], [ -55.153746508823623, 5.825180745682539 ] ] ] } },
{ "type": "Feature", "properties": { "id": null, "Name": "[naamloos]" }, "geometry": { "type": "MultiLineString", "coordinates": [ [ [ -55.154298431369284, 5.826812436161514 ], [ -55.153698354507547, 5.826442018345629 ] ] ] } },
{ "type": "Feature", "properties": { "id": null, "Name": "[naamloos]" }, "geometry": { "type": "MultiLineString", "coordinates": [ [ [ -55.154491248630841, 5.826536563751525 ], [ -55.154595621289126, 5.826577899457772 ], [ -55.154822572578752, 5.826729092152942 ], [ -55.155109646386073, 5.826903188526407 ] ] ] } },
{ "type": "Feature", "properties": { "id": null, "Name": "[naamloos]" }, "geometry": null },
{ "type": "Feature", "properties": { "id": null, "Name": "[naamloos]" }, "geometry": { "type": "MultiLineString", "coordinates": [ [ [ -55.155946265490741, 5.826257547734369 ], [ -55.155664149295603, 5.826691572649947 ] ] ] } },
{ "type": "Feature", "properties": { "id": null, "Name": "Krabbe Hoek" }, "geometry": { "type": "MultiLineString", "coordinates": [ [ [ -55.160038981471068, 5.823527293156847 ], [ -55.159661155298856, 5.823642122679772 ], [ -55.158409143081158, 5.824008836317501 ], [ -55.15679597349294, 5.824481119032753 ] ] ] } },
{ "type": "Feature", "properties": { "id": null, "Name": "[naamloos]" }, "geometry": { "type": "MultiLineString", "coordinates": [ [ [ -55.161066890910064, 5.828045001443873 ], [ -55.162800446288486, 5.82893724535788 ], [ -55.16458215598287, 5.829974415242365 ] ] ] } },
{ "type": "Feature", "properties": { "id": null, "Name": "[naamloos]" }, "geometry": { "type": "MultiLineString", "coordinates": [ [ [ -55.157679419983829, 5.827196281623212 ], [ -55.157320531623071, 5.827801625224077 ], [ -55.156935806218399, 5.828494133045636 ], [ -55.156708925306148, 5.828858994594279 ], [ -55.156348693980213, 5.829610016715986 ] ] ] } },
{ "type": "Feature", "properties": { "id": null, "Name": "[naamloos]" }, "geometry": { "type": "MultiLineString", "coordinates": [ [ [ -55.155302263650327, 5.825317800274419 ], [ -55.155261517690583, 5.825286314760069 ], [ -55.154892025919239, 5.825052025491522 ], [ -55.154717003501233, 5.824913118810565 ] ] ] } },
{ "type": "Feature", "properties": { "id": null, "Name": "[naamloos]" }, "geometry": { "type": "MultiLineString", "coordinates": [ [ [ -55.158870313261851, 5.827804229863547 ], [ -55.158124874578689, 5.82913223408013 ], [ -55.157925747831349, 5.829548897776366 ] ] ] } },
{ "type": "Feature", "properties": { "id": null, "Name": "[naamloos]" }, "geometry": { "type": "MultiLineString", "coordinates": [ [ [ -55.161377777291484, 5.830976018602383 ], [ -55.161083559711798, 5.832091353060163 ], [ -55.160772408746453, 5.832987764174612 ] ] ] } },
{ "type": "Feature", "properties": { "id": null, "Name": "[naamloos]" }, "geometry": { "type": "MultiLineString", "coordinates": [ [ [ -55.156531124754544, 5.824567704197246 ], [ -55.156683922103596, 5.825071472426853 ], [ -55.156893208169578, 5.825791935078752 ] ] ] } },
{ "type": "Feature", "properties": { "id": null, "Name": "[naamloos]" }, "geometry": { "type": "MultiLineString", "coordinates": [ [ [ -55.156893208169578, 5.825791935078752 ], [ -55.15621494758134, 5.826389821994357 ] ] ] } },
{ "type": "Feature", "properties": { "id": null, "Name": "[naamloos]" }, "geometry": { "type": "MultiLineString", "coordinates": [ [ [ -55.157525289469341, 5.827100796141793 ], [ -55.157210841446748, 5.825833144060745 ], [ -55.15679597349294, 5.824481119032753 ] ] ] } },
{ "type": "Feature", "properties": { "id": null, "Name": "Kerk Straat" }, "geometry": { "type": "MultiLineString", "coordinates": [ [ [ -55.157210841446748, 5.825833144060745 ], [ -55.157210841446748, 5.825833144060745 ], [ -55.158814750589542, 5.825364565523647 ], [ -55.160485334939118, 5.824898302097925 ], [ -55.161694749108086, 5.82450704827987 ] ] ] } },
{ "type": "Feature", "properties": { "id": null, "Name": "[naamloos]" }, "geometry": { "type": "MultiLineString", "coordinates": [ [ [ -55.157679419983829, 5.827196281623212 ], [ -55.159238878988724, 5.826755484422304 ], [ -55.160883534091205, 5.826242918769591 ], [ -55.162249677401199, 5.825834380568512 ] ] ] } },
{ "type": "Feature", "properties": { "id": null, "Name": "Joode Bree Straat" }, "geometry": { "type": "MultiLineString", "coordinates": [ [ [ -55.159648190675206, 5.82824873124261 ], [ -55.159238878988724, 5.826755484422304 ], [ -55.158814750589542, 5.825364565523647 ], [ -55.158409143081158, 5.824008836317501 ] ] ] } },
{ "type": "Feature", "properties": { "id": null, "Name": "[naamloos]" }, "geometry": { "type": "MultiLineString", "coordinates": [ [ [ -55.161320627113938, 5.827609760510207 ], [ -55.160883534091205, 5.826242918769591 ], [ -55.160485334939118, 5.824898302097925 ], [ -55.160107737717134, 5.82361102914194 ], [ -55.160038981471068, 5.823527293156847 ] ] ] } },
{ "type": "Feature", "properties": { "id": null, "Name": "[naamloos]" }, "geometry": { "type": "MultiLineString", "coordinates": [ [ [ -55.160107737717134, 5.82361102914194 ], [ -55.160539695847405, 5.823842509096919 ], [ -55.161694749108086, 5.82450704827987 ], [ -55.162705686854714, 5.825115648849305 ], [ -55.164413615876697, 5.826081323997392 ], [ -55.165132092811376, 5.826487994296683 ], [ -55.166343229004397, 5.827186567732247 ], [ -55.168091864788501, 5.82822974732954 ] ] ] } },
{ "type": "Feature", "properties": { "id": null, "Name": "[naamloos]" }, "geometry": { "type": "MultiLineString", "coordinates": [ [ [ -55.159988897561604, 5.830132770194958 ], [ -55.1603061491071, 5.829538569417663 ], [ -55.160633502065473, 5.828826583035391 ], [ -55.161066890910064, 5.828045001443873 ], [ -55.161320627113938, 5.827609760510207 ], [ -55.161674376128175, 5.826966622577356 ], [ -55.162178144357803, 5.825990571632501 ], [ -55.162249677401199, 5.825834380568512 ], [ -55.162705686854714, 5.825115648849305 ] ] ] } },
{ "type": "Feature", "properties": { "id": null, "Name": "[naamloos]" }, "geometry": { "type": "MultiLineString", "coordinates": [ [ [ -55.160038981471068, 5.823527293156847 ], [ -55.160239007091647, 5.823323563358108 ], [ -55.161178332508904, 5.822722311457642 ], [ -55.163795018124333, 5.821175757388995 ] ] ] } },
{ "type": "Feature", "properties": { "id": null, "Name": "[naamloos]" }, "geometry": { "type": "MultiLineString", "coordinates": [ [ [ -55.162965282216504, 5.83283218869194 ], [ -55.163404227328357, 5.832056163367653 ], [ -55.164126542069361, 5.83075229265573 ], [ -55.16458215598287, 5.829974415242365 ], [ -55.165210014180879, 5.828940949536044 ], [ -55.165734778098752, 5.828085840275326 ], [ -55.166247184065362, 5.827137014772672 ] ] ] } },
{ "type": "Feature", "properties": { "id": null, "Name": "[naamloos]" }, "geometry": { "type": "MultiLineString", "coordinates": [ [ [ -55.165202605824604, 5.833697114292046 ], [ -55.165298914456734, 5.833059995648718 ], [ -55.165535981858902, 5.832496960568569 ], [ -55.165980483237959, 5.831770941649428 ], [ -55.167047286547685, 5.829978119420529 ], [ -55.167562167311772, 5.829111341731353 ], [ -55.168091864788501, 5.82822974732954 ] ] ] } },
{ "type": "Feature", "properties": { "id": null, "Name": "[naamloos]" }, "geometry": { "type": "MultiLineString", "coordinates": [ [ [ -55.164413615876697, 5.826081323997392 ], [ -55.162800446288486, 5.82893724535788 ] ] ] } },
{ "type": "Feature", "properties": { "id": null, "Name": "[naamloos]" }, "geometry": { "type": "MultiLineString", "coordinates": [ [ [ -55.162178144357803, 5.825990571632501 ], [ -55.163906143468949, 5.826951805864727 ], [ -55.164617345675452, 5.82740371560011 ], [ -55.165734778098752, 5.828085840275326 ], [ -55.167562167311772, 5.829111341731353 ] ] ] } },
{ "type": "Feature", "properties": { "id": null, "Name": "[naamloos]" }, "geometry": { "type": "MultiLineString", "coordinates": [ [ [ -55.161674376128175, 5.826966622577356 ], [ -55.163387558526694, 5.827914892186037 ], [ -55.165210014180879, 5.828940949536044 ], [ -55.167047286547685, 5.829978119420529 ] ] ] } },
{ "type": "Feature", "properties": { "id": null, "Name": "[naamloos]" }, "geometry": { "type": "MultiLineString", "coordinates": [ [ [ -55.165202605824604, 5.833697114292046 ], [ -55.168062231363351, 5.834723171642063 ] ] ] } },
{ "type": "Feature", "properties": { "id": null, "Name": "[naamloos]" }, "geometry": { "type": "MultiLineString", "coordinates": [ ] } },
{ "type": "Feature", "properties": { "id": null, "Name": "[naamloos]" }, "geometry": null },
{ "type": "Feature", "properties": { "id": null, "Name": "[naamloos]" }, "geometry": null },
{ "type": "Feature", "properties": { "id": null, "Name": "[naamloos]" }, "geometry": { "type": "MultiLineString", "coordinates": [ [ [ -55.164617345675452, 5.82740371560011 ], [ -55.165132092811376, 5.826487994296683 ] ] ] } },
{ "type": "Feature", "properties": { "id": null, "Name": "Hof en Kerk" }, "geometry": { "type": "MultiLineString", "coordinates": [ [ [ -55.155664149295603, 5.826691572649947 ], [ -55.15552567467968, 5.826720507644319 ], [ -55.155267073957809, 5.826692050371354 ], [ -55.155109646386073, 5.826903188526407 ], [ -55.15462810322542, 5.827668101316211 ], [ -55.154855910182185, 5.827790339195456 ], [ -55.155057787891856, 5.827928319831874 ], [ -55.155257813512428, 5.827612538643829 ], [ -55.155730286425594, 5.82682798048056 ], [ -55.155664149295603, 5.826691572649947 ] ] ] } },
{ "type": "Feature", "properties": { "id": null, "Name": "[naamloos]" }, "geometry": { "type": "MultiLineString", "coordinates": [ ] } },
{ "type": "Feature", "properties": { "id": null, "Name": "[naamloos]" }, "geometry": { "type": "MultiLineString", "coordinates": [ ] } },
{ "type": "Feature", "properties": { "id": null, "Name": "[naamloos]" }, "geometry": null },
{ "type": "Feature", "properties": { "id": null, "Name": "[naamloos]" }, "geometry": null },
{ "type": "Feature", "properties": { "id": null, "Name": "[naamloos]" }, "geometry": null },
{ "type": "Feature", "properties": { "id": null, "Name": "[naamloos]" }, "geometry": null },
{ "type": "Feature", "properties": { "id": null, "Name": "[naamloos]" }, "geometry": null },
{ "type": "Feature", "properties": { "id": null, "Name": "[naamloos]" }, "geometry": null },
{ "type": "Feature", "properties": { "id": null, "Name": "[naamloos]" }, "geometry": null },
{ "type": "Feature", "properties": { "id": null, "Name": "[naamloos]" }, "geometry": null },
{ "type": "Feature", "properties": { "id": null, "Name": "[naamloos]" }, "geometry": null },
{ "type": "Feature", "properties": { "id": null, "Name": "[naamloos]" }, "geometry": null },
{ "type": "Feature", "properties": { "id": null, "Name": "[naamloos]" }, "geometry": { "type": "MultiLineString", "coordinates": [ ] } },
{ "type": "Feature", "properties": { "id": null, "Name": "[naamloos]" }, "geometry": { "type": "MultiLineString", "coordinates": [ ] } },
{ "type": "Feature", "properties": { "id": null, "Name": "Plein" }, "geometry": { "type": "MultiLineString", "coordinates": [ [ [ -55.150534986359915, 5.826159574761025 ], [ -55.150890587463167, 5.825915099002541 ], [ -55.150737364944085, 5.825311557963536 ], [ -55.151535114462803, 5.825966957496764 ], [ -55.152016657623456, 5.826344783668968 ], [ -55.152016657623456, 5.826344783668968 ], [ -55.151668464876529, 5.827041169162834 ], [ -55.150873752714766, 5.826481146585588 ], [ -55.150534986359915, 5.826159574761025 ] ] ] } },
{ "type": "Feature", "properties": { "id": null, "Name": "[naamloos]" }, "geometry": { "type": "MultiLineString", "coordinates": [ [ [ -55.150737364944085, 5.825311557963536 ], [ -55.150867190852495, 5.825181732055124 ], [ -55.151051036966052, 5.825076627388309 ] ] ] } },
{ "type": "Feature", "properties": { "id": null, "Name": "[naamloos]" }, "geometry": null },
{ "type": "Feature", "properties": { "id": null, "Name": "[naamloos]" }, "geometry": { "type": "MultiLineString", "coordinates": [ [ [ -55.154855910182185, 5.827790339195456 ], [ -55.154382701422392, 5.828626557414816 ] ] ] } }
]
}
