{
"type": "FeatureCollection",
"name": "streetsParamaribo1772map",
"crs": { "type": "name", "properties": { "name": "urn:ogc:def:crs:OGC:1.3:CRS84" } },
"features": [
{ "type": "Feature", "properties": { "id": null, "Name": "[naamloos]" }, "geometry": { "type": "MultiLineString", "coordinates": [ ] } },
{ "type": "Feature", "properties": { "id": null, "Name": "[naamloos]" }, "geometry": { "type": "MultiLineString", "coordinates": [ ] } },
{ "type": "Feature", "properties": { "id": null, "Name": "Rue des 5 Fenetres" }, "geometry": { "type": "MultiLineString", "coordinates": [ [ [ -55.15705670647796, 5.825744243784945 ], [ -55.156472269479572, 5.826526236951821 ] ] ] } },
{ "type": "Feature", "properties": { "id": null, "Name": "Rue du Marché au Bois" }, "geometry": { "type": "MultiLineString", "coordinates": [ [ [ -55.16562241268273, 5.818706305283079 ], [ -55.165056084999762, 5.819942677637443 ], [ -55.164584394703596, 5.820887006100304 ] ] ] } },
{ "type": "Feature", "properties": { "id": null, "Name": "[naamloos]" }, "geometry": { "type": "MultiLineString", "coordinates": [ [ [ -55.156377970221854, 5.829614951388635 ], [ -55.154674106533015, 5.832225926863774 ] ] ] } },
{ "type": "Feature", "properties": { "id": null, "Name": "[naamloos]" }, "geometry": null },
{ "type": "Feature", "properties": { "id": null, "Name": "[naamloos]" }, "geometry": null },
{ "type": "Feature", "properties": { "id": null, "Name": "[naamloos]" }, "geometry": null },
{ "type": "Feature", "properties": { "id": null, "Name": "[naamloos]" }, "geometry": { "type": "MultiLineString", "coordinates": [ [ [ -55.151051036966052, 5.825076627388309 ], [ -55.151553313309357, 5.82521485454431 ], [ -55.151681453998719, 5.825293392386178 ] ] ] } },
{ "type": "Feature", "properties": { "id": null, "Name": "Marché au Bois" }, "geometry": { "type": "MultiLineString", "coordinates": [ [ [ -55.160044700765106, 5.823400217040084 ], [ -55.159810120632478, 5.823450853280263 ], [ -55.158395750550412, 5.823804962497107 ], [ -55.156712698377746, 5.82429134597394 ], [ -55.156445394144022, 5.824442910230176 ], [ -55.155770588739131, 5.824594818950617 ], [ -55.155530841642907, 5.824541082532496 ], [ -55.154856036238471, 5.824835599439488 ], [ -55.154156429410222, 5.825136316702443 ], [ -55.153875346607784, 5.82516835187477 ], [ -55.153309047432174, 5.825214854544312 ], [ -55.152802685030686, 5.825257223643201 ], [ -55.152285988702594, 5.825272724533058 ], [ -55.151681453998719, 5.825293392386178 ] ] ] } },
{ "type": "Feature", "properties": { "id": null, "Name": "[naamloos]" }, "geometry": null },
{ "type": "Feature", "properties": { "id": null, "Name": "[naamloos]" }, "geometry": null },
{ "type": "Feature", "properties": { "id": null, "Name": "Rue des Seigneurs" }, "geometry": { "type": "MultiLineString", "coordinates": [ [ [ -55.152386782100308, 5.826291635834269 ], [ -55.152655943273494, 5.826416690203421 ], [ -55.153581863093414, 5.826844514763071 ], [ -55.153621132014358, 5.82686311583088 ], [ -55.154123360845247, 5.827137998277419 ], [ -55.154635923602704, 5.82745214964489 ], [ -55.154943874614247, 5.827646427464249 ], [ -55.155149519752833, 5.827772501368289 ], [ -55.156673773920659, 5.828686020476345 ], [ -55.157777437277439, 5.829301922499416 ] ] ] } },
{ "type": "Feature", "properties": { "id": null, "Name": "Rue des Comtes" }, "geometry": { "type": "MultiLineString", "coordinates": [ [ [ -55.151992477472561, 5.827129151090101 ], [ -55.152399661894776, 5.827332276096777 ], [ -55.153569462381547, 5.828008114893904 ], [ -55.154375508653359, 5.828464874447926 ], [ -55.155290061154076, 5.828978470598027 ], [ -55.156171545089762, 5.829475532465647 ], [ -55.156377970221854, 5.829614951388635 ], [ -55.158442942148, 5.830800341850842 ], [ -55.159100179877321, 5.831143428212687 ], [ -55.159525937651658, 5.831370774597041 ], [ -55.160943752375893, 5.832102416597602 ] ] ] } },
{ "type": "Feature", "properties": { "id": null, "Name": "Rue de l'Empereur" }, "geometry": { "type": "MultiLineString", "coordinates": [ [ [ -55.154156429410222, 5.825136316702443 ], [ -55.154999677817699, 5.825716049982542 ], [ -55.155946265490741, 5.826257547734369 ], [ -55.15621494758134, 5.826389821994357 ], [ -55.156472269479572, 5.826526236951821 ], [ -55.157525289469341, 5.827100796141793 ], [ -55.157595560169959, 5.827144198633352 ], [ -55.158771561012649, 5.827832438142354 ], [ -55.15952490425903, 5.828255095738716 ], [ -55.160662669573426, 5.828888565436948 ], [ -55.164229941022491, 5.830864412195521 ], [ -55.166772086956641, 5.832294627631645 ] ] ] } },
{ "type": "Feature", "properties": { "id": null, "Name": "Rue des Comtes" }, "geometry": { "type": "MultiLineString", "coordinates": [ [ [ -55.160943752375893, 5.832102416597602 ], [ -55.162998136976341, 5.832993201067207 ], [ -55.165284001531774, 5.834026593723366 ], [ -55.165474145780507, 5.834096864423985 ], [ -55.165684957882362, 5.834204337260226 ] ] ] } },
{ "type": "Feature", "properties": { "id": null, "Name": "Rue du Poids" }, "geometry": { "type": "MultiLineString", "coordinates": [ [ [ -55.165980008474342, 5.833706966707554 ], [ -55.165581618616734, 5.83345202740654 ], [ -55.165172395124891, 5.833183345315938 ], [ -55.164254742446232, 5.832654248275984 ], [ -55.1634445626038, 5.832183021224776 ], [ -55.161377777291484, 5.830976018602383 ], [ -55.159988897561604, 5.830132770194958 ], [ -55.159807020454117, 5.830041831641215 ], [ -55.157984115808652, 5.828987771131934 ], [ -55.156892853163747, 5.828326399831993 ], [ -55.155503973433873, 5.827532754272063 ], [ -55.155359298462017, 5.827437682147696 ] ] ] } },
{ "type": "Feature", "properties": { "id": null, "Name": "Rue du Moulin a Eau" }, "geometry": { "type": "MultiLineString", "coordinates": [ [ [ -55.153569462381547, 5.828008114893904 ], [ -55.154123360845247, 5.827137998277419 ], [ -55.154404443647728, 5.826648170158391 ], [ -55.154491248630841, 5.826536563751525 ], [ -55.154590454325835, 5.826391888779663 ], [ -55.154999677817699, 5.825716049982542 ], [ -55.15535929846201, 5.825217954722267 ], [ -55.155770588739131, 5.824594818950617 ] ] ] } },
{ "type": "Feature", "properties": { "id": null, "Name": "Rue d'Orange" }, "geometry": { "type": "MultiLineString", "coordinates": [ [ [ -55.152399661894776, 5.827332276096777 ], [ -55.152534002940087, 5.826885850469306 ], [ -55.152655943273494, 5.826416690203421 ], [ -55.152732414330067, 5.825860724954397 ], [ -55.152802685030686, 5.825257223643201 ] ] ] } },
{ "type": "Feature", "properties": { "id": null, "Name": "La Rue du Coude" }, "geometry": { "type": "MultiLineString", "coordinates": [ [ [ -55.153621132014358, 5.82686311583088 ], [ -55.15397041873215, 5.82635468664404 ], [ -55.153949750879029, 5.826011600282196 ], [ -55.153875346607784, 5.82516835187477 ] ] ] } },
{ "type": "Feature", "properties": { "id": null, "Name": "[naamloos]" }, "geometry": { "type": "MultiLineString", "coordinates": [ [ [ -55.154404443647728, 5.826648170158391 ], [ -55.15397041873215, 5.82635468664404 ] ] ] } },
{ "type": "Feature", "properties": { "id": null, "Name": "Rue de la Cour" }, "geometry": { "type": "MultiLineString", "coordinates": [ [ [ -55.154491248630841, 5.826536563751525 ], [ -55.154595621289126, 5.826577899457772 ], [ -55.154930918408006, 5.826729219613358 ], [ -55.155104050475963, 5.82679077834494 ] ] ] } },
{ "type": "Feature", "properties": { "id": null, "Name": "Vieux Jardin d'Orange" }, "geometry": { "type": "MultiLineString", "coordinates": [ [ [ -55.155104050475963, 5.82679077834494 ], [ -55.154635923602704, 5.82745214964489 ] ] ] } },
{ "type": "Feature", "properties": { "id": null, "Name": "Rue de l'Eglise du Sud" }, "geometry": { "type": "MultiLineString", "coordinates": [ [ [ -55.155946265490741, 5.826257547734369 ], [ -55.155664149295603, 5.826691572649947 ] ] ] } },
{ "type": "Feature", "properties": { "id": null, "Name": "Vieux Jardin d'Orange" }, "geometry": { "type": "MultiLineString", "coordinates": [ [ [ -55.155359298462017, 5.827437682147696 ], [ -55.155730286425594, 5.82682798048056 ], [ -55.155664149295603, 5.826691572649947 ] ] ] } },
{ "type": "Feature", "properties": { "id": null, "Name": "Vieux Jardin d'Orange" }, "geometry": { "type": "MultiLineString", "coordinates": [ [ [ -55.155664149295603, 5.826691572649947 ], [ -55.15552567467968, 5.826720507644319 ], [ -55.155327263289699, 5.826732908356194 ], [ -55.155137119040965, 5.826691572649947 ], [ -55.155104050475963, 5.82679077834494 ] ] ] } },
{ "type": "Feature", "properties": { "id": null, "Name": "Rue du Rocher" }, "geometry": { "type": "MultiLineString", "coordinates": [ [ [ -55.157595560169959, 5.827144198633352 ], [ -55.157524256076677, 5.827218602904587 ], [ -55.157239039703576, 5.827749766729853 ], [ -55.156892853163747, 5.828326399831993 ], [ -55.156673773920659, 5.828686020476345 ], [ -55.156171545089762, 5.829475532465647 ] ] ] } },
{ "type": "Feature", "properties": { "id": null, "Name": "[naamloos]" }, "geometry": { "type": "MultiLineString", "coordinates": [ [ [ -55.15535929846201, 5.825217954722267 ], [ -55.155285927583435, 5.825180752586645 ], [ -55.154918039797842, 5.824893469428233 ], [ -55.154856036238471, 5.824835599439488 ] ] ] } },
{ "type": "Feature", "properties": { "id": null, "Name": "[naamloos]" }, "geometry": { "type": "MultiLineString", "coordinates": [ [ [ -55.158771561012649, 5.827832438142354 ], [ -55.158388172337212, 5.82841837177839 ], [ -55.157984115808652, 5.828987771131934 ], [ -55.157777437277439, 5.829301922499416 ] ] ] } },
{ "type": "Feature", "properties": { "id": null, "Name": "[naamloos]" }, "geometry": { "type": "MultiLineString", "coordinates": [ [ [ -55.161377777291484, 5.830976018602383 ], [ -55.160943752375893, 5.832102416597602 ], [ -55.160523161564889, 5.833202979776403 ] ] ] } },
{ "type": "Feature", "properties": { "id": null, "Name": "Canal de Knöffels" }, "geometry": { "type": "MultiLineString", "coordinates": [ [ [ -55.156404058437353, 5.824427409340318 ], [ -55.156459861640862, 5.824505947182175 ], [ -55.156757478725837, 5.825799754787685 ] ] ] } },
{ "type": "Feature", "properties": { "id": null, "Name": "[naamloos]" }, "geometry": { "type": "MultiLineString", "coordinates": [ [ [ -55.156757478725837, 5.825799754787685 ], [ -55.15621494758134, 5.826389821994357 ] ] ] } },
{ "type": "Feature", "properties": { "id": null, "Name": "Le Saint Chemin" }, "geometry": { "type": "MultiLineString", "coordinates": [ [ [ -55.157525289469341, 5.827100796141793 ], [ -55.15705670647796, 5.825744243784945 ], [ -55.156712009448945, 5.824332337215941 ] ] ] } },
{ "type": "Feature", "properties": { "id": null, "Name": "Rue de la Grande Eglise" }, "geometry": { "type": "MultiLineString", "coordinates": [ [ [ -55.156757478725837, 5.825799754787685 ], [ -55.15705670647796, 5.825744243784945 ], [ -55.158768460834708, 5.825361596301474 ], [ -55.16046322479081, 5.824923437815262 ], [ -55.161736364543195, 5.824543149317797 ] ] ] } },
{ "type": "Feature", "properties": { "id": null, "Name": "Rue du Ministre" }, "geometry": { "type": "MultiLineString", "coordinates": [ [ [ -55.157595560169959, 5.827144198633352 ], [ -55.157668931048555, 5.827077028110697 ], [ -55.159132215049674, 5.826688472471981 ], [ -55.160798044011401, 5.826221378991398 ], [ -55.162327465142539, 5.825812155499559 ] ] ] } },
{ "type": "Feature", "properties": { "id": null, "Name": "La Rue large des Juifs" }, "geometry": { "type": "MultiLineString", "coordinates": [ [ [ -55.15952490425903, 5.828255095738716 ], [ -55.159132215049674, 5.826688472471981 ], [ -55.158768460834708, 5.825361596301474 ], [ -55.158395750550412, 5.823804962497107 ] ] ] } },
{ "type": "Feature", "properties": { "id": null, "Name": "Rue de la Briqueterie" }, "geometry": { "type": "MultiLineString", "coordinates": [ [ [ -55.161200033754689, 5.827916142947496 ], [ -55.160798044011401, 5.826221378991398 ], [ -55.16046322479081, 5.824923437815262 ], [ -55.160107737717134, 5.82361102914194 ], [ -55.160044700765106, 5.823400217040084 ] ] ] } },
{ "type": "Feature", "properties": { "id": null, "Name": "Rue du Pont des Briques" }, "geometry": { "type": "MultiLineString", "coordinates": [ [ [ -55.160107737717134, 5.82361102914194 ], [ -55.160539695847405, 5.823842509096919 ], [ -55.161736364543195, 5.824543149317797 ], [ -55.162705686854714, 5.825115648849305 ], [ -55.163908555906481, 5.825805955143619 ], [ -55.165132092811376, 5.826487994296683 ], [ -55.166323755118135, 5.827202795970799 ], [ -55.16755648800126, 5.827949583152448 ], [ -55.168943244927284, 5.828674653157115 ] ] ] } },
{ "type": "Feature", "properties": { "id": null, "Name": "Rue du Pont de la Cense noire" }, "geometry": { "type": "MultiLineString", "coordinates": [ [ [ -55.159988897561604, 5.830132770194958 ], [ -55.1603061491071, 5.829538569417663 ], [ -55.160662669573426, 5.828888565436948 ], [ -55.161116328949525, 5.828075285416543 ], [ -55.161200033754689, 5.827916142947496 ], [ -55.161521418870748, 5.827318841992235 ], [ -55.162013313775077, 5.82642185716669 ], [ -55.162327465142539, 5.825812155499559 ], [ -55.162705686854714, 5.825115648849305 ], [ -55.1627883582672, 5.825010242798376 ], [ -55.162854495397191, 5.824919304244633 ], [ -55.163240984250756, 5.824216252774247 ], [ -55.163528267409006, 5.823704034480992 ], [ -55.164181371567693, 5.82253423399422 ], [ -55.164838609297, 5.821360299936822 ], [ -55.164863410720749, 5.821265227812456 ], [ -55.164929547850747, 5.821153621405591 ], [ -55.1650246199751, 5.821066816422474 ], [ -55.165250243873594, 5.820528820531295 ], [ -55.16554296930294, 5.820158202970875 ], [ -55.166151528248626, 5.818928913900594 ], [ -55.166363896857504, 5.818508136205826 ], [ -55.166701259829559, 5.817850750301823 ], [ -55.16679862926086, 5.817639783200653 ] ] ] } },
{ "type": "Feature", "properties": { "id": null, "Name": "Rue de Sarameca" }, "geometry": { "type": "MultiLineString", "coordinates": [ [ [ -55.160044700765106, 5.823400217040084 ], [ -55.160091203434625, 5.823358881333835 ], [ -55.160231744835869, 5.823267942780094 ], [ -55.161178332508904, 5.822722311457642 ], [ -55.161967844498378, 5.82225969601192 ], [ -55.1631955149739, 5.821601080425732 ], [ -55.164584394703596, 5.820887006100304 ], [ -55.164786939664218, 5.820783666834685 ], [ -55.165250243873594, 5.820528820531295 ] ] ] } },
{ "type": "Feature", "properties": { "id": null, "Name": "Rue du Repos et de la Paix" }, "geometry": { "type": "MultiLineString", "coordinates": [ [ [ -55.162998136976341, 5.832993201067207 ], [ -55.1634445626038, 5.832183021224776 ], [ -55.164229941022491, 5.830864412195521 ], [ -55.165131059418741, 5.829310189640649 ], [ -55.165594019328708, 5.828471074803849 ], [ -55.166343229004397, 5.827186567732247 ], [ -55.166385598103318, 5.827063594006162 ], [ -55.166451735233316, 5.826962321525859 ], [ -55.167152375454194, 5.825759452474091 ], [ -55.167797212471633, 5.824585518416695 ], [ -55.168152699545359, 5.82395721568175 ], [ -55.168235370957852, 5.823775338574267 ], [ -55.169214644640959, 5.822167189312487 ], [ -55.170675149744859, 5.820010120294089 ], [ -55.170920601852963, 5.81966324169505 ], [ -55.173314267039316, 5.821174496410163 ], [ -55.173314267039316, 5.821174496410163 ] ] ] } },
{ "type": "Feature", "properties": { "id": null, "Name": "Le Chemin de Wanica" }, "geometry": { "type": "MultiLineString", "coordinates": [ [ [ -55.165684957882362, 5.834204337260226 ], [ -55.165980008474342, 5.833706966707554 ], [ -55.166325661329303, 5.833080006050321 ], [ -55.166772086956641, 5.832294627631645 ], [ -55.16725984829047, 5.831558852060456 ], [ -55.167724874985808, 5.83080654220678 ], [ -55.168273776145227, 5.829783374108772 ], [ -55.168943244927284, 5.828674653157115 ], [ -55.169000081523436, 5.828570280498846 ], [ -55.16905795151218, 5.828462807662606 ], [ -55.169756524947744, 5.827280606463961 ], [ -55.169744124235862, 5.827284740034584 ], [ -55.170554304078287, 5.825904127445957 ], [ -55.17063697549078, 5.825800788180341 ], [ -55.171663823327059, 5.824087423156459 ], [ -55.17194318380816, 5.823622396461159 ], [ -55.172613434337251, 5.822399395133175 ], [ -55.173314267039316, 5.821174496410163 ], [ -55.173623617836704, 5.820709963081626 ] ] ] } },
{ "type": "Feature", "properties": { "id": null, "Name": "[naamloos]" }, "geometry": { "type": "MultiLineString", "coordinates": [ [ [ -55.168040089510058, 5.818280798623439 ], [ -55.167942720078749, 5.818512051022799 ], [ -55.167403489869656, 5.819465057805436 ], [ -55.166750385710948, 5.820678260783764 ], [ -55.166060079416653, 5.82192246554178 ], [ -55.16597740800416, 5.822058873372392 ], [ -55.16588646945042, 5.822215949056129 ], [ -55.165349105269215, 5.823216273147289 ], [ -55.164704268251768, 5.82438607363406 ], [ -55.1640387633812, 5.825568274832706 ], [ -55.163968492680581, 5.82567988123957 ], [ -55.163908555906481, 5.825805955143619 ], [ -55.163199648544406, 5.827089428822569 ] ] ] } },
{ "type": "Feature", "properties": { "id": null, "Name": "Rue du Voisin" }, "geometry": { "type": "MultiLineString", "coordinates": [ [ [ -55.162013313775077, 5.82642185716669 ], [ -55.163199648544406, 5.827089428822569 ], [ -55.164427319019921, 5.827779735116884 ], [ -55.166939814936264, 5.829087182674915 ], [ -55.168273776145227, 5.829783374108772 ] ] ] } },
{ "type": "Feature", "properties": { "id": null, "Name": "Rue de la Prairie" }, "geometry": { "type": "MultiLineString", "coordinates": [ [ [ -55.161521418870748, 5.827318841992235 ], [ -55.165131059418741, 5.829310189640649 ], [ -55.167724874985808, 5.83080654220678 ] ] ] } },
{ "type": "Feature", "properties": { "id": null, "Name": "[naamloos]" }, "geometry": { "type": "MultiLineString", "coordinates": [ [ [ -55.165684957882362, 5.834204337260226 ], [ -55.167106965793323, 5.834617563520309 ], [ -55.181910162147084, 5.838853133782258 ], [ -55.185488488747716, 5.839753801021872 ], [ -55.186486525418623, 5.839948539884488 ], [ -55.188762535875483, 5.840398873504293 ], [ -55.190259590881872, 5.840471900577776 ], [ -55.191634934099113, 5.84063621149311 ] ] ] } },
{ "type": "Feature", "properties": { "id": null, "Name": "[naamloos]" }, "geometry": { "type": "MultiLineString", "coordinates": [ ] } },
{ "type": "Feature", "properties": { "id": null, "Name": "Le Chemin du Pais" }, "geometry": { "type": "MultiLineString", "coordinates": [ [ [ -55.164450605995434, 5.818174300807947 ], [ -55.16562241268273, 5.818706305283079 ], [ -55.166151528248626, 5.818928913900594 ], [ -55.167403489869656, 5.819465057805436 ], [ -55.168010091358838, 5.819782309350882 ], [ -55.168666295695495, 5.820166731418972 ], [ -55.169906336943484, 5.820982800342274 ], [ -55.171139683073399, 5.821688728719266 ], [ -55.172290403740654, 5.822221116019417 ], [ -55.17266035831156, 5.822423660980024 ] ] ] } },
{ "type": "Feature", "properties": { "id": null, "Name": "[naamloos]" }, "geometry": { "type": "MultiLineString", "coordinates": [ [ [ -55.17266035831156, 5.822423660980024 ], [ -55.173363966019892, 5.822766892318035 ] ] ] } },
{ "type": "Feature", "properties": { "id": null, "Name": "[naamloos]" }, "geometry": { "type": "MultiLineString", "coordinates": [ [ [ -55.164427319019921, 5.827779735116884 ], [ -55.165132092811376, 5.826487994296683 ], [ -55.165186862622249, 5.826384655031082 ], [ -55.165248866181614, 5.826281315765465 ], [ -55.165947439617177, 5.825074313143072 ], [ -55.166594687884235, 5.823903479263655 ], [ -55.16708003796834, 5.82301166140138 ], [ -55.16716684295146, 5.822866986429518 ], [ -55.16798115636449, 5.82137890100465 ], [ -55.168666295695495, 5.820166731418972 ] ] ] } },
{ "type": "Feature", "properties": { "id": null, "Name": "[naamloos]" }, "geometry": { "type": "MultiLineString", "coordinates": [ [ [ -55.169328700388135, 5.825128049561192 ], [ -55.168382755011912, 5.82657241134609 ], [ -55.16755648800126, 5.827949583152448 ], [ -55.166861919391216, 5.829126130447438 ], [ -55.166381563530116, 5.830030043334757 ] ] ] } },
{ "type": "Feature", "properties": { "id": null, "Name": "[naamloos]" }, "geometry": { "type": "MultiLineString", "coordinates": [ ] } },
{ "type": "Feature", "properties": { "id": null, "Name": "[naamloos]" }, "geometry": { "type": "MultiLineString", "coordinates": [ ] } },
{ "type": "Feature", "properties": { "id": null, "Name": "La Rue haute" }, "geometry": { "type": "MultiLineString", "coordinates": [ [ [ -55.169756524947744, 5.827280606463961 ], [ -55.168460650556959, 5.826533463573567 ], [ -55.167152375454194, 5.825759452474091 ], [ -55.165947439617177, 5.825074313143072 ], [ -55.164704268251768, 5.82438607363406 ], [ -55.163528267409006, 5.823704034480992 ], [ -55.162423915123973, 5.823083654423098 ], [ -55.162164878031497, 5.823155302980592 ] ] ] } },
{ "type": "Feature", "properties": { "id": null, "Name": "[naamloos]" }, "geometry": { "type": "MultiLineString", "coordinates": [ [ [ -55.161576533145912, 5.824300302043614 ], [ -55.161606845997163, 5.824202474205498 ], [ -55.162361911564595, 5.823991662103642 ], [ -55.162164878031497, 5.823155302980592 ], [ -55.161967844498378, 5.82225969601192 ] ] ] } },
{ "type": "Feature", "properties": { "id": null, "Name": "[naamloos]" }, "geometry": { "type": "MultiLineString", "coordinates": [ [ [ -55.162361911564595, 5.823991662103642 ], [ -55.162659528649563, 5.823918635689274 ], [ -55.163240984250756, 5.824216252774247 ] ] ] } },
{ "type": "Feature", "properties": { "id": null, "Name": "La Rue du Prince" }, "geometry": { "type": "MultiLineString", "coordinates": [ [ [ -55.1631955149739, 5.821601080425732 ], [ -55.163420105644512, 5.822028216056943 ], [ -55.163544112763262, 5.822129488537249 ], [ -55.164181371567693, 5.82253423399422 ], [ -55.165349105269215, 5.823216273147289 ], [ -55.166594687884235, 5.823903479263655 ], [ -55.167797212471633, 5.824585518416695 ] ] ] } },
{ "type": "Feature", "properties": { "id": null, "Name": "[naamloos]" }, "geometry": { "type": "MultiLineString", "coordinates": [ [ [ -55.171663823327059, 5.824087423156459 ], [ -55.169411716265003, 5.824378839885489 ], [ -55.168765501390638, 5.824493202006101 ], [ -55.168440327168149, 5.8245207591436 ], [ -55.167797212471633, 5.824585518416695 ] ] ] } },
{ "type": "Feature", "properties": { "id": null, "Name": "Rue de la Crique de la Fabrique de Dram" }, "geometry": { "type": "MultiLineString", "coordinates": [ [ [ -55.1650246199751, 5.821066816422474 ], [ -55.166060079416653, 5.82192246554178 ], [ -55.16716684295146, 5.822866986429518 ], [ -55.168235370957852, 5.823775338574267 ] ] ] } },
{ "type": "Feature", "properties": { "id": null, "Name": "[naamloos]" }, "geometry": { "type": "MultiLineString", "coordinates": [ [ [ -55.164838609297, 5.821360299936822 ], [ -55.16588646945042, 5.822215949056129 ] ] ] } },
{ "type": "Feature", "properties": { "id": null, "Name": "[naamloos]" }, "geometry": { "type": "MultiLineString", "coordinates": [ [ [ -55.170554304078287, 5.825904127445957 ], [ -55.169328700388135, 5.825128049561192 ], [ -55.168440327168149, 5.8245207591436 ] ] ] } },
{ "type": "Feature", "properties": { "id": null, "Name": "[naamloos]" }, "geometry": { "type": "MultiLineString", "coordinates": [ [ [ -55.17194318380816, 5.823622396461159 ], [ -55.170355548224258, 5.822693720927512 ], [ -55.169194359342768, 5.82204750605317 ], [ -55.16798115636449, 5.82137890100465 ], [ -55.166750385710948, 5.820678260783764 ], [ -55.16554296930294, 5.820158202970875 ], [ -55.164365407743041, 5.819616585509218 ] ] ] } },
{ "type": "Feature", "properties": { "id": null, "Name": "[naamloos]" }, "geometry": { "type": "MultiLineString", "coordinates": [ [ [ -55.171967323239528, 5.820341784919488 ], [ -55.171139683073399, 5.821688728719266 ], [ -55.170355548224258, 5.822693720927512 ], [ -55.169411716265003, 5.824378839885489 ] ] ] } },
{ "type": "Feature", "properties": { "id": null, "Name": "[naamloos]" }, "geometry": { "type": "MultiLineString", "coordinates": [ ] } },
{ "type": "Feature", "properties": { "id": null, "Name": "[naamloos]" }, "geometry": null },
{ "type": "Feature", "properties": { "id": null, "Name": "Le Plein" }, "geometry": { "type": "MultiLineString", "coordinates": [ [ [ -55.150237974710329, 5.826132691333163 ], [ -55.150737364944085, 5.825311557963536 ], [ -55.151607198530442, 5.825752966052138 ], [ -55.152386782100308, 5.826291635834269 ], [ -55.151951213034771, 5.827090943277335 ], [ -55.150873752714766, 5.826481146585588 ], [ -55.150237974710329, 5.826132691333163 ] ], [ [ -55.151992477472561, 5.827129151090101 ], [ -55.151951213034771, 5.827090943277335 ] ] ] } },
{ "type": "Feature", "properties": { "id": null, "Name": "[naamloos]" }, "geometry": { "type": "MultiLineString", "coordinates": [ [ [ -55.150737364944085, 5.825311557963536 ], [ -55.150867190852495, 5.825181732055124 ], [ -55.151051036966052, 5.825076627388309 ] ] ] } },
{ "type": "Feature", "properties": { "id": null, "Name": "[naamloos]" }, "geometry": { "type": "MultiLineString", "coordinates": [ [ [ -55.154943874614247, 5.827646427464249 ], [ -55.154375508653359, 5.828464874447926 ] ] ] } },
{ "type": "Feature", "properties": { "id": null, "Name": "Rue de l'Eglise du Nord" }, "geometry": { "type": "MultiLineString", "coordinates": [ [ [ -55.154943874614247, 5.827646427464249 ], [ -55.154375508653359, 5.828464874447926 ] ] ] } }
]
}
